FAC_NO,FAC_NAME,ADDRESS,CITY,COUNTY,ZIP_CODE,PHONE,OWNER,CEO,TYPE_HOSP,TYPE_CNTRL,TYPE_CARE,HSA_NAME,DSH_HOSP
106010739,ALTA BATES SUMMIT MEDICAL CENTER - ALTA BATES CAMPUS,2450 ASHBY AVENUE,BERKELEY,Alameda,94609,510-204-4444,SUTTER HEALTH,DAVID D CLARK,Comparable,Non-Profit,General,05 - EAST BAY,Non-DSH
106010846,HIGHLAND HOSPITAL,1411 EAST 31ST STREET,OAKLAND,Alameda,94602,510-437-4800,COUNTY OF ALAMEDA,JAMES E.T. JACKSON,Comparable,City/County,General,05 - EAST BAY,DSH
106010887,KINDRED HOSPITAL - SAN FRANCISCO BAY AREA,2800 BENEDICT DRIVE,SAN LEANDRO,Alameda,94577,510-367-8300,"THC-ORANGE COUNTY, INC",LARRY FOSTER,Comparable,Investor,General,05 - EAST BAY,Non-DSH
106010937,ALTA BATES SUMMIT MEDICAL CENTER - SUMMIT HAWTHORNE,350 HAWTHORNE AVENUE,OAKLAND,Alameda,94609,510-655-4000,SUTTER HEALTH,DAVID D CLARK,Comparable,Non-Profit,General,05 - EAST BAY,Non-DSH
106010967,ST. ROSE HOSPITAL,27200 CALAROGA AVENUE,HAYWARD,Alameda,94545,510-264-4000,HAYWARD SISTERS HOSPITAL,LEX REDDY,Comparable,Non-Profit,General,05 - EAST BAY,DSH
106010987,WASHINGTON HOSPITAL - FREMONT,2000 MOWRY AVENUE,FREMONT,Alameda,94538,510-797-1111,WASHINGTON TOWNSHIP HEALTHCARE DISTRICT,KIMBERLY HARTZ,Comparable,District,General,05 - EAST BAY,Non-DSH
106013687,MERRITT PERALTA INSTITUTE CDRH,"3012 SUMMIT STREET, 5TH FLOOR",OAKLAND,Alameda,94609,510-869-8802,SUTTER HEALTH,DAVID D CLARK,Comparable,Non-Profit,Specialty,05 - EAST BAY,Non-DSH
106014050,STANFORD HEALTH CARE TRI-VALLEY,5555 W. LAS POSITAS BLVD,PLEASANTON,Alameda,94588,925-847-3000,STANFORD HEALTH CARE,RICK SHUMWAY,Comparable,Non-Profit,General,05 - EAST BAY,Non-DSH
106014132,KAISER FOUNDATION HOSPITAL - FREMONT,39400 PASEO PADRE PARKWAY,FREMONT,Alameda,94538,510-987-3380,KAISER FOUNDATION HOSPITALS,GREGORY ADAMS,Kaiser,Non-Profit,General,05 - EAST BAY,Non-DSH
106014207,TELECARE HERITAGE - PHF,2633 EAST 27TH ST,OAKLAND,Alameda,94601,510-535-5115,TELECARE CORPORATION,EDREA MARTINEZ,PHF,Investor,Psychiatric,05 - EAST BAY,Non-DSH
106014226,TELECARE WILLOW ROCK CENTER - PHF,2050 FAIRMONT DRIVE,SAN LEANDRO,Alameda,94578,510-895-5502,TELECARE CORPORATION,JULIE HODGES,PHF,Investor,Psychiatric,05 - EAST BAY,DSH
106014233,EDEN MEDICAL CENTER,20103 LAKE CHABOT ROAD,CASTRO VALLEY,Alameda,94546,510-537-1234,SUTTER HEALTH,SHANNON THOMAS,Comparable,Non-Profit,General,05 - EAST BAY,Non-DSH
106014326,KAISER FOUNDATION HOSPITAL - OAKLAND/RICHMOND,275 W. MACARTHUR BLVD,OAKLAND,Alameda,94611,510-987-3380,KAISER FOUNDATION HOSPITALS,GREGORY ADAMS,Kaiser,Non-Profit,General,05 - EAST BAY,Non-DSH
106014337,KAISER FOUNDATION HOSPITAL - SAN LEANDRO,2500 MERCED ST,SAN LEANDRO,Alameda,94577,510-987-3380,KAISER FOUNDATION HOSPITALS,GREGORY ADAMS,Kaiser,Non-Profit,General,05 - EAST BAY,Non-DSH
106015000,KAISER FOUNDATION NORTHERN REGION,393 E. WALNUT STREET,PASADENA,,91188,626-405-5000,KAISER FOUNDATION HOSPITALS,GREGORY ADAMS,Kaiser,Non-Profit,General,05 - EAST BAY,Non-DSH
106040802,ORCHARD HOSPITAL,240 SPRUCE STREET,GRIDLEY,Butte,95948,530-846-9000,ORCHARD HOSPITAL,STEVE LEE STARK,Comparable,District,General,01 - NORTHERN CALIFORNIA,Non-DSH
106040937,OROVILLE HOSPITAL,2767 OLIVE HIGHWAY,OROVILLE,Butte,95966,530-533-8500,OROHEALTH CORPORATION,ROBERT J. WENTZ,Comparable,Non-Profit,General,01 - NORTHERN CALIFORNIA,DSH
106040962,ENLOE MEDICAL CENTER - ESPLANADE CAMPUS,1531 ESPLANADE,CHICO,Butte,95926,530-332-7300,ENLOE MEDICAL CENTER,MIKE WILTERMOOD,Comparable,Non-Profit,General,01 - NORTHERN CALIFORNIA,Non-DSH
106044006,BUTTE COUNTY MENTAL HEALTH - PHF,592 RIO LINDO AVENUE,CHICO,Butte,95926,530-891-2775,COUNTY OF BUTTE,"SCOTT KENNELLY, L.C.S.W",PHF,City/County,Psychiatric,01 - NORTHERN CALIFORNIA,DSH
106050932,MARK TWAIN MEDICAL CENTER,768 MOUNTAIN RANCH ROAD,SAN ANDREAS,Calaveras,95249,209-754-3521,MARK TWAIN MEDICAL CENTER,DOUGLAS ARCHER,Comparable,Non-Profit,General,06 - NORTH SAN JOAQUIN,Non-DSH
106070924,CONTRA COSTA REGIONAL MEDICAL CENTER,2500 ALHAMBRA STREET,MARTINEZ,Contra Costa,94533,925-370-4222,COUNTY OF CONTRA COSTA,SAMIR B. SHAH,Comparable,City/County,General,05 - EAST BAY,DSH
106070934,SUTTER DELTA MEDICAL CENTER,3901 LONE TREE WAY,ANTIOCH,Contra Costa,94509,925-779-7200,SUTTER HEALTH,SHERIE HICKMAN,Comparable,Non-Profit,General,05 - EAST BAY,DSH
106070988,JOHN MUIR MEDICAL CENTER - WALNUT CREEK,1601 YGNACIO VALLEY ROAD,WALNUT CREEK,Contra Costa,94598,925-939-3000,JOHN MUIR HEALTH,MICHAEL THOMAS,Comparable,Non-Profit,General,05 - EAST BAY,Non-DSH
106070990,KAISER FOUNDATION HOSPITAL - WALNUT CREEK,1425 SOUTH MAIN ST,WALNUT CREEK,Contra Costa,94596,510-987-3380,KAISER FOUNDATION HOSPITALS,GREGORY ADAMS,Kaiser,Non-Profit,General,05 - EAST BAY,Non-DSH
106071018,JOHN MUIR MEDICAL CENTER - CONCORD CAMPUS,2540 EAST STREET,CONCORD,Contra Costa,94520,925-682-8200,JOHN MUIR HEALTH,MICHAEL THOMAS,Comparable,Non-Profit,General,05 - EAST BAY,Non-DSH
106074039,JOHN MUIR BEHAVIORAL HEALTH CENTER,2740 GRANT STREET,CONCORD,Contra Costa,94520,800-680-6500,JOHN MUIR HEALTH,MICHAEL THOMAS,Comparable,Non-Profit,Psychiatric,05 - EAST BAY,Non-DSH
106074097,KAISER FOUNDATION HOSPITAL - ANTIOCH,451 SAND CREEK ROAD,ANTIOCH,Contra Costa,94531,510-987-3380,KAISER FOUNDATION HOSPITALS,GREGORY ADAMS,Kaiser,Non-Profit,General,05 - EAST BAY,Non-DSH
106084001,SUTTER COAST HOSPITAL,800 EAST WASHINGTON BOULEVARD,CRESCENT CITY,Del Norte,95531,707-464-8511,SUTTER COAST HOSPITAL,MITCHELL J HANNA,Comparable,Non-Profit,General,01 - NORTHERN CALIFORNIA,DSH
106090793,BARTON MEMORIAL HOSPITAL,2170 SOUTH AVENUE,SOUTH LAKE TAHOE,El Dorado,96150,530-541-3420,BARTON HEALTHCARE SYSTEM,"CLINT PURVANCE, MD",Comparable,Non-Profit,General,02 - GOLDEN EMPIRE,Non-DSH
106094002,TELECARE EL DORADO COUNTY P.H.F.,935-B SPRING STREET,PLACERVILLE,El Dorado,95667,530-621-6213,TELECARE CORPORATION,JARED NYAGOL,PHF,Investor,Psychiatric,02 - GOLDEN EMPIRE,DSH
106100005,CLOVIS COMMUNITY MEDICAL CENTER,2755 HERNDON AVE,CLOVIS,Fresno,93611,559-324-4000,COMMUNITY HEALTH SYSTEMS,CRAIG CASTRO,Comparable,Non-Profit,General,09 - CENTRAL,Non-DSH
106100717,COMMUNITY REGIONAL MEDICAL CENTER - FRESNO,2823 FRESNO STREET,FRESNO,Fresno,93715,559-459-6000,COMMUNITY HEALTH SYSTEMS,CRAIG CASTRO,Comparable,Non-Profit,General,09 - CENTRAL,DSH
106104062,KAISER FOUNDATION HOSPITAL - FRESNO,7300 N. FRESNO STREET,FRESNO,Fresno,93720,510-987-3380,KAISER FOUNDATION HOSPITALS,GREGORY ADAMS,Kaiser,Non-Profit,General,09 - CENTRAL,Non-DSH
106105051,COALINGA STATE HOSPITAL,24511 W. JAYNE AVE,COALINGA,Fresno,93210,559-935-4300,STATE OF CALIFORNIA,BRANDON PRICE,State,State,Specialty,09 - CENTRAL,Non-DSH
106105125,CENTRAL STAR PSYCHIATRIC HEALTH FACILITY,"4411 E KINGS CANYON RD, #319",FRESNO,Fresno,93702,559-600-2382,STARS BEHAVIORAL HEALTH GROUP HOLDING COMPANY,KENT DUNLAP,PHF,Investor,Psychiatric,09 - CENTRAL,Non-DSH
106110889,GLENN MEDICAL CENTER,1133 W. SYCAMORE ST,WILLOWS,Glenn,95988,503-934-1800,GURPREET SINGH RANDHAWA,TAMMY THOMPSON,Comparable,Investor,General,01 - NORTHERN CALIFORNIA,Non-DSH
106121002,MAD RIVER COMMUNITY HOSPITAL,3800 JANES ROAD,ARCATA,Humboldt,95521,707-822-3621,AMERICAN HOSPITAL MANAGEMENT CORPORATION,DOUGLAS SHAW,Comparable,Investor,General,01 - NORTHERN CALIFORNIA,DSH
106121031,JEROLD PHELPS COMMUNITY HOSPITAL,733 CEDAR STREET,GARBERVILLE,Humboldt,95542,707-923-3921,SOUTHERN HUMBOLDT COMMUNITY HEALTHCARE DISTRICT,MATT REES,Comparable,District,General,01 - NORTHERN CALIFORNIA,Non-DSH
106121051,PROVIDENCE REDWOOD MEMORIAL HOSPITAL,3300 RENNER DRIVE,FORTUNA,Humboldt,95540,707-725-3361,ST JOSEPH HEALTH NORTHERN CALIFORNIA LLC,DARIAN HARRIS,Comparable,Non-Profit,General,01 - NORTHERN CALIFORNIA,Non-DSH
106124004,SEMPERVIRENS P.H.F.,720 WOOD STREET,EUREKA,Humboldt,95501,707-268-2990,COUNTY OF HUMBOLDT,EMI BOTZLER-RODGERS,PHF,City/County,Psychiatric,01 - NORTHERN CALIFORNIA,Non-DSH
106130760,PIONEERS MEMORIAL HEALTHCARE DISTRICT,207 WEST LEGION ROAD,BRAWLEY,Imperial,92227,760-351-3333,PIONEERS MEMORIAL HEALTHCARE DISTRICT,DAMON SORENSEN,Comparable,District,General,14 - SAN DIEGO / IMPERIAL,DSH
106141338,SOUTHERN INYO HOSPITAL,501 EAST LOCUST STREET,LONE PINE,Inyo,93545,760-876-5501,SOUTHERN INYO HEALTHCARE DISTRICT,PETER SPIERS,Comparable,District,General,12 - INLAND COUNTIES,Non-DSH
106150722,BAKERSFIELD MEMORIAL HOSPITAL,420 34TH STREET,BAKERSFIELD,Kern,93302,661-327-4647,DIGNITY HEALTH,KEN KELLER,Comparable,Non-Profit,General,09 - CENTRAL,DSH
106150736,KERN MEDICAL CENTER,1700 MOUNT VERNON AVENUE,BAKERSFIELD,Kern,93306,661-326-2000,COUNTY OF KERN,SCOTT THYGERSON,Comparable,City/County,General,09 - CENTRAL,DSH
106150737,KERN VALLEY HOSPITAL DISTRICT,6412 LAUREL AVENUE,LAKE ISABELLA,Kern,93240,760-379-2681,KERN VALLEY HEALTHCARE DISTRICT,TIMOTHY MCGLEW,Comparable,District,General,09 - CENTRAL,DSH
106150761,MERCY HOSPITAL - BAKERSFIELD,2215 TRUXTON AVENUE,BAKERSFIELD,Kern,93301,661-632-6523,COMMONSPIRIT HEALTH,BENJAMIN BJ PREDUM,Comparable,Non-Profit,General,09 - CENTRAL,Non-DSH
106150775,GOOD SAMARITAN HOSPITAL - BAKERSFIELD,901 OLIVE DR.,BAKERSFIELD,Kern,93308,805-399-4661,ALLIANCE INVESTMENT INC,JAGDEEP DILLON,Comparable,Investor,General,09 - CENTRAL,DSH
106150782,RIDGECREST REGIONAL HOSPITAL,1081 N. CHINA LAKE BLVD,RIDGECREST,Kern,93555,760-499-3902,RIDGECREST REGIONAL HOSPITAL,JIM SUVER,Comparable,Non-Profit,General,09 - CENTRAL,DSH
106150820,BAKERSFIELD REHABILITATION HOSPITAL,4400 KIRKCALDY DR,BAKERSFIELD,Kern,93306,661-688-7000,"ERNEST HEALTH HOLDINGS, LLC","MOZGHAN HINES, PT, DPT",Comparable,Investor,Specialty,09 - CENTRAL,Non-DSH
106154044,BAKERSFIELD BEHAVIORAL HEALTHCARE HOSPITAL,5201 WHITE LANE,BAKERSFIELD,Kern,93309,877-755-4907,SIGNATURE HEALTHCARE SERVICES,JOHN BEALL,Comparable,Investor,Psychiatric,09 - CENTRAL,Non-DSH
106154101,BAKERSFIELD HEART HOSPITAL,3001 SILLECT AVENUE,BAKERSFIELD,Kern,93308,661-316-6000,"SURGERY CENTER HOLDINGS, INC. & DOCTORS HOSPITAL HOLDING, LLC",JASON WELLS,Comparable,Investor,Specialty,09 - CENTRAL,Non-DSH
106154160,CRESTWOOD PSYCHIATRIC HEALTH FACILITY - BAKERSFIELD,"6700 EUCALYPTUS DRIVE, STE C",BAKERSFIELD,Kern,93306,661-363-8127,"CRESTWOOD BEHAVIORAL HEALTH, INC.",SUKHDEEP KAUR,PHF,Investor,Psychiatric,09 - CENTRAL,Non-DSH
106154168,ADVENTIST HEALTH TEHACHAPI VALLEY,1100 MAGELLAN DRIVE,TEHACHAPI,Kern,93561,661-771-8600,ADVENTIST HEALTH SYSTEMS,JASON WELLS,Comparable,Non-Profit,General,09 - CENTRAL,Non-DSH
106171049,ADVENTIST HEALTH CLEARLAKE,15630 18TH AVENUE,CLEARLAKE,Lake,95422,707-995-5705,ADVENTIST HEALTH SYSTEMS,COLLEEN ASSAVAPISITKUL,Comparable,Non-Profit,General,01 - NORTHERN CALIFORNIA,DSH
106171395,SUTTER LAKESIDE HOSPITAL,5176 HILL ROAD EAST,LAKEPORT,Lake,95453-6300,707-262-5000,SUTTER HEALTH,SCOTT KNIGHT,Comparable,Non-Profit,General,01 - NORTHERN CALIFORNIA,DSH
106184008,BANNER LASSEN MEDICAL CENTER,1800 SPRING RIDGE DRIVE,SUSANVILLE,Lassen,96130,530-252-2000,BANNER HEALTH SYSTEM,SANDY DUGGER,Comparable,Non-Profit,General,01 - NORTHERN CALIFORNIA,DSH
106190020,BHC ALHAMBRA HOSPITAL,4619 N ROSEMEAD BLVD,ROSEMEAD,Los Angeles,91770,626-286-1191,"UNIVERSAL HEALTH SERVICES, INC.",PEGGY MINNICK,Comparable,Investor,Psychiatric,11 - LOS ANGELES COUNTY,Non-DSH
106190034,ANTELOPE VALLEY HOSPITAL,1600 WEST AVENUE J,LANCASTER,Los Angeles,93534,661-949-5000,ANTELOPE VALLEY HOSPITAL DISTRICT,EDWARD MIRZABEGIAN,Comparable,District,General,11 - LOS ANGELES COUNTY,DSH
106190045,CATALINA ISLAND MEDICAL CENTER,100 FALLS CANYON ROAD,AVALON,Los Angeles,90704,310-510-0700,AVALON MEDICAL DEVELOPMENT CORPORATION,JASON PARET,Comparable,Non-Profit,General,11 - LOS ANGELES COUNTY,Non-DSH
106190052,BARLOW RESPIRATORY HOSPITAL,2000 STADIUM WAY,LOS ANGELES,Los Angeles,90026,213-250-4200,BARLOW RESPIRATORY HOSPITAL,AMIT MOHAN,Comparable,Non-Profit,Specialty,11 - LOS ANGELES COUNTY,Non-DSH
106190053,ST. MARY MEDICAL CENTER - LONG BEACH,1050 LINDEN AVENUE,LONG BEACH,Los Angeles,90813-3393,562-491-9000,DIGNITY HEALTH,CAROLYN CALDWELL,Comparable,Non-Profit,General,11 - LOS ANGELES COUNTY,DSH
106190125,CALIFORNIA HOSPITAL MEDICAL CENTER,1401 S. GRAND AVENUE,LOS ANGELES,Los Angeles,90015,213-748-2411,DIGNITY HEALTH,ALINA MORAN,Comparable,Non-Profit,General,11 - LOS ANGELES COUNTY,DSH
106190148,CENTINELA HOSPITAL MEDICAL CENTER,555 EAST HARDY STREET,INGLEWOOD,Los Angeles,90301,310-680-8200,"PRIME HEALTHCARE SERVICES, INC.","MOHAMMAD ABDELNASER, RN",Comparable,Investor,General,11 - LOS ANGELES COUNTY,DSH
106190150,KEDREN COMMUNITY MENTAL HEALTH CENTER,4211 S. AVALON BLVD,LOS ANGELES,Los Angeles,90011,323-233-0425,"KEDREN COMMUNITY HEALTH CENTER, INC.",JOHN H. GRIFFITH,Comparable,Non-Profit,Psychiatric,11 - LOS ANGELES COUNTY,DSH
106190170,CHILDREN'S HOSPITAL LOS ANGELES,"4650 SUNSET BOULEVARD, MS 21",LOS ANGELES,Los Angeles,90027,323-660-2450,CHILDRENS HOSPITAL LOS ANGELES,PAUL VIVIANO,Comparable,Non-Profit,Children,11 - LOS ANGELES COUNTY,DSH
106190176,CITY OF HOPE HELFORD CLINICAL RESEARCH HOSPITAL,1500 EAST DUARTE ROAD,DUARTE,Los Angeles,91010,626-256-4673,CITY OF HOPE NATIONAL MEDICAL CENTER,ROBERT W. STONE,Comparable,Non-Profit,Specialty,11 - LOS ANGELES COUNTY,Non-DSH
106190184,COLLEGE HOSPITAL,10802 COLLEGE PLACE,CERRITOS,Los Angeles,90703,562-924-9581,CERRITOS TOWNHOUSE INVESTMENT CO.,STEPHEN WITT,Comparable,Investor,Psychiatric,11 - LOS ANGELES COUNTY,Non-DSH
106190196,KINDRED HOSPITAL - SOUTH BAY,1246 WEST 155TH STREET,GARDENA,Los Angeles,90247,310-323-5330,KINDRED HEALTHCARE,MARK APODACA,Comparable,Investor,General,11 - LOS ANGELES COUNTY,Non-DSH
106190198,LOS ANGELES COMMUNITY HOSPITAL,4801 EAST OLYMPIC BLVD,LOS ANGELES,Los Angeles,90023,323-267-0477,"ALTA HOSPITALS SYSTEM, LLC",HECTOR HERNANDEZ,Comparable,Investor,General,11 - LOS ANGELES COUNTY,DSH
106190232,DEL AMO HOSPITAL,23700 CAMINO DEL SOL,TORRANCE,Los Angeles,90505,310-530-1151,"UHS OF DELAWARE, INC.",MARIKO YAMADA,Comparable,Investor,Psychiatric,11 - LOS ANGELES COUNTY,Non-DSH
106190240,LAKEWOOD REGIONAL MEDICAL CENTER,3700 E. SOUTH STREET,LAKEWOOD,Los Angeles,90712,562-531-2550,TENET HEALTHCARE CORPORATION,VIRGIS NARBUTAS,Comparable,Investor,General,11 - LOS ANGELES COUNTY,Non-DSH
106190243,PIH HOSPITAL - DOWNEY,11500 BROOKSHIRE AVE,DOWNEY,Los Angeles,90241,562-904-5000,PIH HEALTH HOSPITAL,JIM WEST,Comparable,Non-Profit,General,11 - LOS ANGELES COUNTY,Non-DSH
106190280,ENCINO HOSPITAL MEDICAL CENTER,16237 VENTURA BLVD,ENCINO,Los Angeles,91436,818-995-5000,"PRIME HEALTHCARE SERVICES FOUNDATION, INC.",RICK MAHALINGAM,Comparable,Non-Profit,General,11 - LOS ANGELES COUNTY,DSH
106190315,GARFIELD MEDICAL CENTER,525 N. GARFIELD AVENUE,MONTEREY PARK,Los Angeles,91754,626-307-2010,GARFIELD MEDICAL CENTER,HERBERT VILLAFUERTE,Comparable,Investor,General,11 - LOS ANGELES COUNTY,DSH
106190317,GATEWAYS HOSPITAL AND MENTAL HEALTH CENTER,1891 EFFIE STREET,LOS ANGELES,Los Angeles,90026,323-644-2000,GATEWAYS HOSPITAL,PHIL WONG,Comparable,Non-Profit,Psychiatric,11 - LOS ANGELES COUNTY,Non-DSH
106190323,ADVENTIST HEALTH GLENDALE,1509 WILSON TERRACE,GLENDALE,Los Angeles,91206,818-409-8000,ADVENTIST HEALTH SYSTEMS,ALICE ISSAI,Comparable,Non-Profit,General,11 - LOS ANGELES COUNTY,Non-DSH
106190328,GLENDORA HOSPITAL,150 WEST ROUTE 66,GLENDORA,Los Angeles,91740-6207,866-410-5454,"CHLB, LLC",DOUGLAS MACKAY,Comparable,Investor,Psychiatric,11 - LOS ANGELES COUNTY,Non-DSH
106190380,SOUTHERN CALIFORNIA HOSPITAL AT HOLLYWOOD,6245 DE LONGPRE AVENUE,HOLLYWOOD,Los Angeles,90028,323-462-2271,"PROSPECT MEDICAL HOLDINGS, INC.",OMAR RAMIREZ,Comparable,Investor,General,11 - LOS ANGELES COUNTY,DSH
106190382,HOLLYWOOD PRESBYTERIAN MEDICAL CENTER,1300 NORTH VERMONT AVENUE,LOS ANGELES,Los Angeles,90027-6000,213-413-3000,"CHA HOLLYWOOD PRESBYTERIAN MEDICAL CENTER, LP",JAMIE YOO,Comparable,Investor,General,11 - LOS ANGELES COUNTY,DSH
106190385,PROVIDENCE HOLY CROSS MEDICAL CENTER,15031 RINALDI STREET,MISSION HILLS,Los Angeles,91345-1285,818-365-8051,PROVIDENCE HEALTH & SERVICES,"BERNIE KLEIN, MD",Comparable,Non-Profit,General,11 - LOS ANGELES COUNTY,DSH
106190392,GOOD SAMARITAN HOSPITAL - LA,1225 WILSHIRE BOULEVARD,LOS ANGELES,Los Angeles,90017,213-977-2121,PIH HEALTH INC,JAMES R WEST,Comparable,Non-Profit,General,11 - LOS ANGELES COUNTY,Non-DSH
106190400,HUNTINGTON HOSPITAL,100 W. CALIFORNIA BLVD,PASADENA,Los Angeles,91105-3010,626-397-5000,"PASADENA HOSPITAL ASSOCIATION, LTD","LORI J. MORGAN MD, MBA",Comparable,Non-Profit,General,11 - LOS ANGELES COUNTY,Non-DSH
106190413,EMANATE HEALTH INTER-COMMUNITY HOSPITAL,210 WEST SAN BERNARDINO ROAD,COVINA,Los Angeles,91723,626-858-8589,EMANATE HEALTH,RAJESH SHARMA,Comparable,Non-Profit,General,11 - LOS ANGELES COUNTY,DSH
106190429,KAISER FOUNDATION HOSPITAL - LOS ANGELES,4867 SUNSET BOULEVARD,LOS ANGELES,Los Angeles,90027,213-667-4867,KAISER FOUNDATION HOSPITALS,GREGORY ADAMS,Kaiser,Non-Profit,General,11 - LOS ANGELES COUNTY,Non-DSH
106190431,KAISER FOUNDATION HOSPITAL - SOUTH BAY,25825 S. VERMONT AVENUE,HARBOR,Los Angeles,90710,310-517-5279,KAISER FOUNDATION HOSPITALS,GREGORY ADAMS,Kaiser,Non-Profit,General,11 - LOS ANGELES COUNTY,Non-DSH
106190432,KAISER FOUNDATION HOSPITAL - PANORAMA CITY,13652 CANTARA STREET,PANORAMA CITY,Los Angeles,91402,818-375-2295,KAISER FOUNDATION HOSPITALS,GREGORY ADAMS,Kaiser,Non-Profit,General,11 - LOS ANGELES COUNTY,Non-DSH
106190434,KAISER FOUNDATION HOSPITAL - WEST LOS ANGELES,6041 CADILLAC AVENUE,WEST LOS ANGELES,Los Angeles,90034,213-857-2135,KAISER FOUNDATION HOSPITALS,GREGORY ADAMS,Kaiser,Non-Profit,General,11 - LOS ANGELES COUNTY,Non-DSH
106190462,AURORA LAS ENCINAS HOSPITAL,2900 E DEL MAR BLVD,PASADENA,Los Angeles,91107,626-795-9901,SIGNATURE HEALTHCARE SERVICES,TREVOR ASMUS,Comparable,Investor,Psychiatric,11 - LOS ANGELES COUNTY,Non-DSH
106190470,PROVIDENCE LITTLE COMPANY OF MARY MC - TORRANCE,4101 TORRANCE BLVD,TORRANCE,Los Angeles,90503,310-540-6767,PROVIDENCE HEALTH & SERVICES,GARRY OLNEY,Comparable,Non-Profit,General,11 - LOS ANGELES COUNTY,Non-DSH
106190517,PROVIDENCE TARZANA MEDICAL CENTER,18321 CLARK STREET,TARZANA,Los Angeles,91356,818-881-0800,PROVIDENCE HEALTH AND SERVICES,NICK LYMBEROPOULOS,Comparable,Non-Profit,General,11 - LOS ANGELES COUNTY,Non-DSH
106190521,MEMORIAL HOSPITAL OF GARDENA,1145 WEST REDONDO BEACH BLVD,GARDENA,Los Angeles,90247,310-532-4200,PIPELINE HEALTH,VICTOR CARRASCO,Comparable,Investor,General,11 - LOS ANGELES COUNTY,DSH
106190522,GLENDALE MEMORIAL HOSPITAL AND HEALTH CTR,1429 SOUTH CENTRAL AVENUE,GLENDALE,Los Angeles,91204-2594,818-502-1900,DIGNITY HEALTH,JILL WELTON,Comparable,Non-Profit,General,11 - LOS ANGELES COUNTY,DSH
106190524,MISSION COMMUNITY HOSPITAL - PANORAMA,14850 ROSCOE BOULEVARD,PANORAMA CITY,Los Angeles,91402,818-787-2222,"DEANCO HEALTHCARE, LLC",JAMES THEIRING,Comparable,Investor,General,11 - LOS ANGELES COUNTY,DSH
106190525,MEMORIALCARE LONG BEACH MEDICAL CENTER,2801 ATLANTIC AVENUE,LONG BEACH,Los Angeles,90806,562-933-2000,MEMORIAL HEALTH SERVICES,BLAIR KENT,Comparable,Non-Profit,General,11 - LOS ANGELES COUNTY,Non-DSH
106190529,USC ARCADIA HOSPITAL,300 WEST HUNTINGTON DRIVE,ARCADIA,Los Angeles,91007,626-445-4441,USC ARCADIA HOSPITAL,IKENNA MMEJE,Comparable,Non-Profit,General,11 - LOS ANGELES COUNTY,Non-DSH
106190541,MONROVIA MEMORIAL HOSPITAL,323 SOUTH HELIOTROPE AVE,MONROVIA,Los Angeles,91016,626-408-9800,"ALAKOR HEALTHCARE, LLC",KATHY WOJNO,Comparable,Investor,General,11 - LOS ANGELES COUNTY,Non-DSH
106190552,MOTION PICTURE AND TELEVISION HOSPITAL,23388 MULHOLLAND DRIVE,WOODLAND HILLS,Los Angeles,91364,818-876-4169,MPTF,ROBERT BEITCHER,Comparable,Non-Profit,General,11 - LOS ANGELES COUNTY,Non-DSH
106190555,CEDARS-SINAI MEDICAL CENTER,8700 BEVERLY BLVD,LOS ANGELES,Los Angeles,90048-1865,323-568-8504,CEDARS-SINAI MEDICAL CENTER,PRISELAC THOMAS,Comparable,Non-Profit,General,11 - LOS ANGELES COUNTY,Non-DSH
106190568,NORTHRIDGE HOSPITAL MEDICAL CENTER,18300 ROSCOE BLVD,NORTHRIDGE,Los Angeles,91328,818-885-8500,DIGNITY HEALTH,PAUL H. WATKINS,Comparable,Non-Profit,General,11 - LOS ANGELES COUNTY,Non-DSH
106190587,COLLEGE MEDICAL CENTER,2776 PACIFIC AVE,LONG BEACH,Los Angeles,90806,562-997-2000,"CHLB, LLC",JOE AVELINO,Comparable,Investor,General,11 - LOS ANGELES COUNTY,DSH
106190599,KINDRED HOSPITAL - PARAMOUNT,16453 S. COLORADO AVENUE,PARAMOUNT,Los Angeles,90723,562-531-3110,"KND REAL ESTATE 40, LLC",MARK APODACA,Comparable,Investor,General,11 - LOS ANGELES COUNTY,Non-DSH
106190630,POMONA VALLEY HOSPITAL MEDICAL CENTER,1798 NORTH GAREY AVENUE,POMONA,Los Angeles,91767,909-865-9500,POMONA VALLEY HOSPITAL MEDICAL CENTER,RICHARD E YOCHUM,Comparable,Non-Profit,General,11 - LOS ANGELES COUNTY,DSH
106190636,EMANATE HEALTH QUEEN OF THE VALLEY HOSPITAL,1115 SO. SUNSET AVE,WEST COVINA,Los Angeles,91790,626-858-8541,EMANATE HEALTH,RAJESH SHARMA,Comparable,Non-Profit,General,#N/A,#N/A
106190661,L.A. DOWNTOWN MEDICAL CENTER,1711 WEST TEMPLE STREET,LOS ANGELES,Los Angeles,90026,213-689-6128,L.A. DOWNTOWN MEDICAL CENTER LLC,WILLIAM NELSON,Comparable,Investor,General,11 - LOS ANGELES COUNTY,DSH
106190681,DOCS SURGICAL HOSPITAL,6000 SAN VICENTE BLVD,LOS ANGELES,Los Angeles,90036-4404,323-433-7016,DOCS SURGICAL HOSPITAL,DR. KHAWAR SIDDIQUE,Comparable,Investor,Specialty,11 - LOS ANGELES COUNTY,Non-DSH
106190687,SANTA MONICA - UCLA MEDICAL CENTER AND ORTHOPAEDIC HOSPITAL,1250 16TH STREET,SANTA MONICA,Los Angeles,90404,310-319-4000,REGENTS OF THE UNIVERSITY OF CALIFORNIA,"JOHNESE SPISSO, MPA",Comparable,Non-Profit,General,11 - LOS ANGELES COUNTY,DSH
106190696,PACIFICA HOSPITAL OF THE VALLEY,9449 SAN FERNANDO ROAD,SUN VALLEY,Los Angeles,91352,818-767-3310,PACIFICA OF THE VALLEY CORPORATION,PRECIOUS MAYES,Comparable,Investor,General,11 - LOS ANGELES COUNTY,DSH
106190708,SHERMAN OAKS HOSPITAL,4929 VAN NUYS BLVD,SHERMAN OAKS,Los Angeles,91403,818-981-7111,"PRIME HEALTHCARE SERVICES FOUNDATION, INC.",RICK MAHALINGAM,Comparable,Non-Profit,General,11 - LOS ANGELES COUNTY,DSH
106190754,ST. FRANCIS MEDICAL CENTER,3630 E. IMPERIAL HIGHWAY,LYNWOOD,Los Angeles,90262,310-603-6000,"PRIME HEALTHCARE SERVICES, INC.",CLAY FARELL,Comparable,Investor,General,11 - LOS ANGELES COUNTY,DSH
106190756,PROVIDENCE ST. JOHN'S HEALTH CENTER,2121 SANTA MONICA BLVD,SANTA MONICA,Los Angeles,90404,310-829-5511,PROVIDENCE HEALTH & SERVICES,MICHAEL R. RICKS,Comparable,Non-Profit,General,11 - LOS ANGELES COUNTY,Non-DSH
106190758,PROVIDENCE ST. JOSEPH MEDICAL CENTER,501 SOUTH BUENA VISTA STREET,BURBANK,Los Angeles,91505-4866,818-843-5111,PROVIDENCE HEALTH & SERVICES,KARL KEELER,Comparable,Non-Profit,General,11 - LOS ANGELES COUNTY,Non-DSH
106190782,TARZANA TREATMENT CENTER,18646 OXNARD STREET,TARZANA,Los Angeles,91356,818-996-1051,"TARZANA TREATMENT CENTERS, INC.",ALBERT SENELLA,Comparable,Non-Profit,Specialty,11 - LOS ANGELES COUNTY,Non-DSH
106190812,VALLEY PRESBYTERIAN HOSPITAL,15107 VANOWEN STREET,VAN NUYS,Los Angeles,91405-4542,818-902-5718,VALLEY PRESBYTERIAN HOSPITAL,GUSTAVO VALDESPINO,Comparable,Non-Profit,General,11 - LOS ANGELES COUNTY,DSH
106190818,USC VERDUGO HILLS HOSPITAL,1812 VERDUGO BOULEVARD,GLENDALE,Los Angeles,91208,818-790-7100,USC VERDUGO HILLS HOSPITAL,ARMAND DORIAN,Comparable,Non-Profit,General,11 - LOS ANGELES COUNTY,Non-DSH
106190857,WEST COVINA MEDICAL CENTER,725 SOUTH ORANGE BLVD,WEST COVINA,Los Angeles,91790,818-338-8481,WEST COVINA MEDICAL CENTER,GERALD WALLMAN,Comparable,Investor,General,#N/A,#N/A
106190859,WEST HILLS HOSPITAL AND MEDICAL CENTER,7300 MEDICAL CENTER DRIVE,WEST HILLS,Los Angeles,91307,818-676-4000,"HCA CORPORATION, INC.",SABA HABIS,Comparable,Investor,General,11 - LOS ANGELES COUNTY,Non-DSH
106190878,ADVENTIST HEALTH WHITE MEMORIAL,1720 CESAR E. CHAVEZ AVENUE,LOS ANGELES,Los Angeles,90033-2462,323-268-5000,ADVENTIST HEALTH SYSTEMS,JOHN RAFFOUL,Comparable,Non-Profit,General,11 - LOS ANGELES COUNTY,DSH
106190930,RESNICK NEUROPSYCHIATRIC HOSPITAL AT UCLA,150 UCLA MEDICAL PLAZA,LOS ANGELES,Los Angeles,90095-4700,310-825-9989,REGENTS OF THE UNIVERSITY OF CA,JOHNESE SPISSO,Comparable,Non-Profit,Psychiatric,11 - LOS ANGELES COUNTY,Non-DSH
106190958,METROPOLITAN STATE HOSPITAL,11401 S. BLOOMFIELD AVENUE,NORWALK,Los Angeles,90650,562-863-7011,STATE OF CALIFORNIA,DR. MICHAEL BARSOM,State,State,Specialty,11 - LOS ANGELES COUNTY,Non-DSH
106191216,USC KENNETH NORRIS JR. CANCER HOSPITAL,1441 EASTLAKE AVENUE,LOS ANGELES,Los Angeles,90033,323-286-5300,UNIVERSITY OF SOUTHERN CALIFORNIA,RODNEY HANNERS,Comparable,Non-Profit,Specialty,11 - LOS ANGELES COUNTY,Non-DSH
106191228,LOS ANGELES GENERAL MEDICAL CENTER,2051 MARENGO STREET,LOS ANGELES,Los Angeles,90033,323-409-6871,COUNTY OF LOS ANGELES,JORGE OROZCO,Comparable,City/County,General,11 - LOS ANGELES COUNTY,DSH
106191230,"MARTIN LUTHER KING, JR. COMMUNITY HOSPITAL",1680 E. 120TH STREET,LOS ANGELES,Los Angeles,90059,424-338-8740,MARTIN LUTHER KING JR. - LOS ANGELES,ELAINE BATCHLOR,Comparable,Non-Profit,General,11 - LOS ANGELES COUNTY,Non-DSH
106191300,KAISER FOUNDATION SOUTHERN REGION,393 EAST WALNUT STREET,PASADENA,,91188,626-405-5000,KAISER FOUNDATION HOSPITALS,GREGORY ADAMS,Kaiser,Non-Profit,General,11 - LOS ANGELES COUNTY,Non-DSH
106191306,LAC/RANCHO LOS AMIGOS NATIONAL REHABILITATION CENTER,7601 E. IMPERIAL HWY,DOWNEY,Los Angeles,90242-3456,562-385-7022,COUNTY OF LOS ANGELES,"ARIES LIMBAGA, D.N.P.",Comparable,City/County,General,11 - LOS ANGELES COUNTY,DSH
106191450,KAISER FOUNDATION HOSPITAL - WOODLAND HILLS,5601 DE SOTO AVENUE,WOODLAND HILLS,Los Angeles,91365,818-719-2777,KAISER FOUNDATION HOSPITALS,GREGORY ADAMS,Kaiser,Non-Profit,General,11 - LOS ANGELES COUNTY,Non-DSH
106194219,KECK HOSPITAL OF USC,1500 SAN PABLO STREET,LOS ANGELES,Los Angeles,90033,323-442-8500,UNIVERSITY OF SOUTHERN CALIFORNIA,RODNEY HANNERS,Comparable,Non-Profit,General,11 - LOS ANGELES COUNTY,Non-DSH
106194967,STAR VIEW ADOLESCENT - PHF,4025 W 226TH STREET,TORRANCE,Los Angeles,90505,310-373-4556,STARS BEHAVIORAL HEALTH GROUP HOLDING COMPANY,KENT DUNLAP,PHF,Investor,Psychiatric,11 - LOS ANGELES COUNTY,Non-DSH
106194981,LA CASA PSYCHIATRIC HEALTH FACILITY,6060 PARAMOUNT BLVD,LONG BEACH,Los Angeles,90805,562-630-8672,TELECARE CORPORATION,WAYNE MUNCHEL,PHF,Investor,Psychiatric,11 - LOS ANGELES COUNTY,Non-DSH
106196035,KAISER FOUNDATION HOSPITAL - BALDWIN PARK,1011 BALDWIN PARK BOULEVARD,BALDWIN PARK,Los Angeles,91706,626-851-1011,KAISER FOUNDATION HOSPITALS,GREGORY ADAMS,Kaiser,Non-Profit,General,11 - LOS ANGELES COUNTY,Non-DSH
106196168,MEMORIALCARE MILLER CHILDREN'S & WOMEN'S HOSPITAL LONG BEACH,2801 ATLANTIC AVENUE,LONG BEACH,Los Angeles,90806,562-933-2000,MEMORIAL HEALTH SERVICES,BLAIR KENT,Comparable,Non-Profit,Children,11 - LOS ANGELES COUNTY,DSH
106196403,KAISER FOUNDATION HOSPITAL - DOWNEY,9333 IMPERIAL HIGHWAY,DOWNEY,Los Angeles,90242,310-803-2121,KAISER FOUNDATION HOSPITALS,GREGORY ADAMS,Kaiser,Non-Profit,General,11 - LOS ANGELES COUNTY,Non-DSH
106196404,JOYCE EISENBERG KEEFER MEDICAL CENTER,7150 TAMPA AVE,RESEDA,Los Angeles,91335,818-774-3000,JEWISH HOME FOR THE AGING,DALE SUROWITZ,LTC Emphasis,Non-Profit,Psychiatric,11 - LOS ANGELES COUNTY,Non-DSH
106196405,PALMDALE REGIONAL MEDICAL CENTER,38600 MEDICAL CENTER DRIVE,PALMDALE,Los Angeles,93551,661-382-5000,UNIVERSAL HEALTH SYSTEMS INC,NANA DEEB,Comparable,Investor,General,11 - LOS ANGELES COUNTY,Non-DSH
106198495,OCEAN VIEW PSYCHIATRIC HEALTH FACILITY,2600 REDONDO AVE. SUITE 500,LONG BEACH,Los Angeles,90806,562-304-1740,JACK STEPHENS,JACK STEPHENS,PHF,Investor,Psychiatric,11 - LOS ANGELES COUNTY,Non-DSH
106200030,RIVER VISTA BEHAVIORAL HEALTH,40886 GOODWIN WAY,MADERA,Madera,93636,559-603-6000,"UHS OF DELAWARE, INC.",ROBERT DUTILE,Comparable,Investor,Psychiatric,09 - CENTRAL,Non-DSH
106201281,MADERA COMMUNITY HOSPITAL,1250 E ALMOND AVENUE,MADERA,Madera,93637,559-675-5555,MADERA COMMUNITY HOSPITAL,KAREN PAOLINELLI,Comparable,Non-Profit,General,09 - CENTRAL,DSH
106210992,KAISER FOUNDATION HOSPITAL - SAN RAFAEL,99 MONTECILLO ROAD,SAN RAFAEL,Marin,94903,510-987-3380,KAISER FOUNDATION HOSPITALS,GREGORY ADAMS,Kaiser,Non-Profit,General,04 - WEST BAY,Non-DSH
106210993,KENTFIELD HOSPITAL,1125 SIR FRANCIS DRAKE BLVD,KENTFIELD,Marin,94904,415-456-9680,VIBRA HEALTHCARE LLC,VARUN CHAUHAN,Comparable,Investor,Specialty,04 - WEST BAY,Non-DSH
106211006,MARIN GENERAL HOSPITAL,250 BON AIR ROAD,GREENBRAE,Marin,94904,415-925-7000,MARIN HEALTHCARE DISTRICT,"DAVID KLEIN, MD, MBA",Comparable,Non-Profit,General,04 - WEST BAY,Non-DSH
106214034,NOVATO COMMUNITY HOSPITAL,180 ROWLAND WAY,NOVATO,Marin,94948,415-209-1300,SUTTER HEALTH,DAN PETERSON,Comparable,Non-Profit,General,04 - WEST BAY,Non-DSH
106231013,ADVENTIST HEALTH MENDOCINO COAST,700 RIVER DRIVE,FORT BRAGG,Mendocino,95437,707-961-1234,ADVENTIST HEALTH SYSTEMS,JUDSON HOWE,Comparable,Non-Profit,General,01 - NORTHERN CALIFORNIA,Non-DSH
106231396,ADVENTIST HEALTH UKIAH VALLEY,275 HOSPITAL DRIVE,UKIAH,Mendocino,95482,707-462-3111,ADVENTIST HEALTH SYSTEMS,JUDSON HOWE,Comparable,Non-Profit,General,01 - NORTHERN CALIFORNIA,DSH
106240942,MERCY MEDICAL CENTER - MERCED,333 MERCY AVENUE,MERCED,Merced,95340,209-564-5000,DIGNITY HEALTH,CHUCK KASSIS,Comparable,Non-Profit,General,06 - NORTH SAN JOAQUIN,DSH
106254005,MODOC MEDICAL CENTER,1111 N NAGLE STREET,ALTURAS,Modoc,96101,530-708-8800,COUNTY OF MODOC,KEVIN KRAMER,Comparable,District,General,01 - NORTHERN CALIFORNIA,Non-DSH
106260011,MAMMOTH HOSPITAL,85 SIERRA PARK ROAD,MAMMOTH LAKES,Mono,93546,760-993-4331,SOUTHERN MONO HEALTHCARE DISTRICT,TOM PARKER,Comparable,District,General,12 - INLAND COUNTIES,Non-DSH
106270744,COMMUNITY HOSPITAL OF THE MONTEREY PENINSULA,23625 W.R. HOLMAN HIGHWAY,MONTEREY,Monterey,93940,831-624-5311,COMMUNITY HOSPITAL FOUNDATION,STEVEN PACKER M.D.,Comparable,Non-Profit,General,08 - MID-COAST,Non-DSH
106270777,GEORGE L. MEE MEMORIAL HOSPITAL,300 CANAL STREET,KING CITY,Monterey,93930,831-385-6000,COUNTY OF SOUTHERN MONTEREY,RENA SALAMACHA,Comparable,Non-Profit,General,08 - MID-COAST,DSH
106270875,SALINAS VALLEY HEALTH MEDICAL CENTER,450 E. ROMIE LANE,SALINAS,Monterey,93901,831-757-4333,SALINAS VALLEY MEMORIAL HOSPITAL DISTRICT,ALLEN RADNER,Comparable,District,General,08 - MID-COAST,Non-DSH
106274043,NATIVIDAD MEDICAL CENTER,1441 CONSTITUTION BLVD,SALINAS,Monterey,93906,831-755-4111,COUNTY OF MONTEREY,CHARLES R. HARRIS,Comparable,City/County,General,08 - MID-COAST,DSH
106281266,NAPA STATE HOSPITAL,2100 NAPA VALLEJO HIGHWAY,NAPA,Napa,94558,707-253-5000,STATE OF CALIFORNIA,JENNIE CLAY,State,State,Specialty,03 - NORTH BAY,Non-DSH
106291023,SIERRA NEVADA MEMORIAL HOSPITAL,155 GLASSON WAY,GRASS VALLEY,Nevada,95945,530-274-6000,SIERRA NEVADA MEMORIAL HOSPITAL,DR. SCOTT NEELY,Comparable,Non-Profit,General,02 - GOLDEN EMPIRE,DSH
106291053,TAHOE FOREST HOSPITAL,10121 PINE AVENUE,TRUCKEE,Nevada,96160,530-587-6011,TAHOE FOREST HOSPITAL DISTRICT,HARRY WEIS,Comparable,District,General,02 - GOLDEN EMPIRE,Non-DSH
106300032,CHILDREN'S HOSPITAL OF ORANGE COUNTY,1201 W. LA VETA AVE,ORANGE,Orange,92868,714-997-3000,CHILDREN'S HOSPITAL OF ORANGE COUNTY,KIMBERLY CRIPE,Comparable,Non-Profit,Children,13 - ORANGE COUNTY,DSH
106300225,MEMORIALCARE ORANGE COAST MEDICAL CENTER,9920 TALBERT AVENUE,FOUNTAIN VALLEY,Orange,92708-5153,714-378-7000,MEMORIAL HEALTH SERVICES,MARCIA MANKER,Comparable,Non-Profit,General,13 - ORANGE COUNTY,Non-DSH
106301097,ANAHEIM COMMUNITY HOSPITAL,3350 W BALL ROAD,ANAHEIM,Orange,92804,714-243-9000,SIGNATURE HEALTH CARE,PHILLIP FRANKS,Comparable,Investor,Psychiatric,13 - ORANGE COUNTY,Non-DSH
106301098,AHMC ANAHEIM REGIONAL MEDICAL CENTER,1111 WEST LA PALMA AVENUE,ANAHEIM,Orange,92801,714-774-1450,"AHMC HEALTHCARE, INC.",LISA HAHN,Comparable,Investor,General,13 - ORANGE COUNTY,DSH
106301127,KINDRED HOSPITAL - BREA,875 NORTH BREA BLVD,BREA,Orange,92821,714-529-6842,"KINDRED HEALTHCARE, INC.",KEVIN CHAVEZ,Comparable,Investor,General,13 - ORANGE COUNTY,Non-DSH
106301140,CHAPMAN GLOBAL MEDICAL CENTER,2601 CHAPMAN AVENUE,ORANGE,Orange,92869,714-633-0011,"KPC HEALTHCARE, INC.",PETER BARONOFF,Comparable,Investor,General,13 - ORANGE COUNTY,DSH
106301155,COLLEGE HOSPITAL COSTA MESA,301 VICTORIA STREET,COSTA MESA,Orange,92627,949-642-2734,"CHCM, INC.",WARREN BRADLEY,Comparable,Investor,Psychiatric,13 - ORANGE COUNTY,DSH
106301188,ANAHEIM GLOBAL MEDICAL CENTER,1025 SOUTH ANAHEIM BLVD,ANAHEIM,Orange,92805,714-533-6220,"KPC HEALTHCARE, INC.",PETER BARONOFF,Comparable,Investor,General,13 - ORANGE COUNTY,DSH
106301205,HOAG MEMORIAL HOSPITAL PRESBYTERIAN,ONE HOAG DRIVE,NEWPORT BEACH,Orange,92663,949-764-4624,HOAG MEMORIAL HOSPITAL PRESBYTERIAN,ROBERT BRAITHWAITE,Comparable,Non-Profit,General,13 - ORANGE COUNTY,Non-DSH
106301209,HUNTINGTON BEACH HOSPITAL,17772 BEACH BLVD,HUNTINGTON BEACH,Orange,92647,714-942-1473,"PRIME HEALTHCARE HUNTINGTON BEACH, LLC",DAN BROTHMAN,Comparable,Investor,General,13 - ORANGE COUNTY,DSH
106301234,LA PALMA INTERCOMMUNITY HOSPITAL,7901 WALKER STREET,LA PALMA,Orange,90623,714-670-7400,"PRIME HEALTHCARE SERVICES FOUNDATION, INC.","MOUSA, AYMAN",Comparable,Non-Profit,General,13 - ORANGE COUNTY,DSH
106301248,LOS ALAMITOS MEDICAL CENTER,3751 KATELLA AVENUE,LOS ALAMITOS,Orange,90720,562-598-1311,TENET HEALTHCARE CORP,KENT CLAYTON,Comparable,Investor,General,13 - ORANGE COUNTY,Non-DSH
106301258,SOUTH COAST GLOBAL MEDICAL CENTER,2701 SOUTH BRISTOL STREET,SANTA ANA,Orange,92704,714-754-5454,"KPC HEALTHCARE, INC.",PETER BARONOFF,Comparable,Investor,General,13 - ORANGE COUNTY,DSH
106301262,PROVIDENCE MISSION HOSPITAL,27700 MEDICAL CENTER ROAD,MISSION VIEJO,Orange,92691,949-364-1400,ST. JOSEPH HEALTH SYSTEM,EILEEN HAUBL,Comparable,Non-Profit,General,13 - ORANGE COUNTY,Non-DSH
106301279,UNIVERSITY OF CALIFORNIA IRVINE MEDICAL CENTER,101 THE CITY DRIVE SOUTH,ORANGE,Orange,92868,714-456-5678,REGENTS OF THE UNIVERSITY OF CALIFORNIA,CHAD T LEFTERIS,Comparable,Non-Profit,General,13 - ORANGE COUNTY,DSH
106301283,GARDEN GROVE HOSPITAL AND MEDICAL CENTER,12601 GARDEN GROVE BLVD,GARDEN GROVE,Orange,92843,714-537-5160,"PRIME HEALTHCARE SERVICES, INC.",DAN BROTHMAN,Comparable,Investor,General,13 - ORANGE COUNTY,DSH
106301304,NEWPORT BAY HOSPITAL,1501 EAST 16TH STREET,NEWPORT BEACH,Orange,92663,949-650-9750,"BEACON HEALTHCARE SERVICES, INC.",JAMES E PARKHURST,Comparable,Investor,Psychiatric,#N/A,#N/A
106301317,MEMORIALCARE SADDLEBACK MEDICAL CENTER,24451 HEALTH CENTER DRIVE,LAGUNA HILLS,Orange,92653,949-837-4500,MEMORIAL HEALTH SERVICES,MARCIA MANKER,Comparable,Non-Profit,General,13 - ORANGE COUNTY,Non-DSH
106301357,FOOTHILL REGIONAL MEDICAL CENTER,14662 NEWPORT AVENUE,TUSTIN,Orange,92780-6064,714-669-5880,"ALTA HOSPITALS SYSTEM, LLC",ARACELI LONERGAN,Comparable,Investor,General,13 - ORANGE COUNTY,DSH
106301379,WEST ANAHEIM MEDICAL CENTER,3033 ORANGE AVENUE,ANAHEIM,Orange,92804,714-827-3000,"PRIME HEALTHCARE SERVICES, INC.",AYMAN MOUSA,Comparable,Investor,General,13 - ORANGE COUNTY,DSH
106301380,KINDRED HOSPITAL - WESTMINSTER,200 HOSPITAL CIRCLE,WESTMINSTER,Orange,92683,714-893-4541,"KINDRED HEALTHCARE, INC.",PHILLIP WOLFE,Comparable,Investor,General,13 - ORANGE COUNTY,Non-DSH
106301566,ORANGE COUNTY GLOBAL MEDICAL CENTER,1001 NORTH TUSTIN AVENUE,SANTA ANA,Orange,92705,714-953-3500,"KPC HEALTHCARE, INC.",PETER BARONOFF,Comparable,Investor,General,13 - ORANGE COUNTY,DSH
106304113,CHILDREN'S HOSPITAL AT MISSION,27700 MEDICAL CENTER ROAD,MISSION VIEJO,Orange,92691,714-509-8471,CHILDRENS HOSPITAL AT MISSION,KIMBERLY CRIPE,Comparable,Non-Profit,Children,13 - ORANGE COUNTY,Non-DSH
106304409,KAISER FOUNDATION HOSPITAL - ORANGE CO - ANAHEIM,3440 E. LA PALMA AVENUE,ANAHEIM,Orange,92806,714-281-8645,KAISER FOUNDATION HOSPITALS,GREGORY ADAMS,Kaiser,Non-Profit,General,13 - ORANGE COUNTY,Non-DSH
106304460,HOAG ORTHOPEDIC INSTITUTE,16250 SAND CANYON AVENUE,IRVINE,Orange,92618,949-517-3149,HOAG MEMORIAL HOSPITAL PRESBYTERIAN,KIM MIKES,Comparable,Investor,Specialty,13 - ORANGE COUNTY,Non-DSH
106304583,LAGUNA TREATMENT CENTER,24552 PACIFIC PARK DR,ALISO VIEJO,Orange,92656,949-565-2377,"AMERICAN ADDICTION CENTERS, INC.",TRACE SWARTZFAGER,Comparable,Investor,Specialty,13 - ORANGE COUNTY,Non-DSH
106304585,ENCOMPASS HEALTH REHABILITATION HOSPITAL OF TUSTIN,15120 KENSINGTON PARK DRIVE,TUSTIN,Orange,92782,714-832-9200,ENCOMPASS HEALTH,PAULA REDMOND,Comparable,Investor,Specialty,13 - ORANGE COUNTY,Non-DSH
106310791,SUTTER AUBURN FAITH HOSPITAL,11815 EDUCATION STREET,AUBURN,Placer,95602,530-888-4500,SUTTER HEALTH,MITCH HANNA,Comparable,Non-Profit,General,02 - GOLDEN EMPIRE,Non-DSH
106311000,SUTTER ROSEVILLE MEDICAL CENTER,ONE MEDICAL PLAZA,ROSEVILLE,Placer,95661,916-781-1000,SUTTER HEALTH,BRIAN ALEXANDER,Comparable,Non-Profit,General,02 - GOLDEN EMPIRE,Non-DSH
106314024,KAISER FOUNDATION HOSPITAL - ROSEVILLE,1600 EUREKA ROAD,ROSEVILLE,Placer,95661,916-784-4000,KAISER FOUNDATION HOSPITALS,GREGORY ADAMS,Kaiser,Non-Profit,General,02 - GOLDEN EMPIRE,Non-DSH
106314029,CIRBY HILLS BEHAVIORAL HEALTH - PHF,101 CIRBY HILLS DRIVE,ROSEVILLE,Placer,95678,530-790-2520,"NORTH VALLEY BEHAVIORAL HEALTH, LLC",ARNE HYSON,PHF,Investor,Psychiatric,02 - GOLDEN EMPIRE,Non-DSH
106320986,PLUMAS DISTRICT HOSPITAL,1065 BUCKS LAKE ROAD,QUINCY,Plumas,95971,530-283-2121,PLUMAS HOSPITAL DISTRICT,JODEE READ,Comparable,District,General,01 - NORTHERN CALIFORNIA,Non-DSH
106321016,SENECA HEALTHCARE DISTRICT,130 BRENTWOOD DRIVE,CHESTER,Plumas,96020,530-258-2151,SENECA HEALTHCARE DISTRICT,STEVE BOLINE,Comparable,District,General,01 - NORTHERN CALIFORNIA,Non-DSH
106330120,THE BETTY FORD CENTER,39407 VISTA DEL SOL,RANCHO MIRAGE,Riverside,92270-1375,763-773-4100,HAZELDEN BETTY FORD FOUNDATION,THERESA VOSS,Comparable,Non-Profit,Specialty,12 - INLAND COUNTIES,Non-DSH
106331152,CORONA REGIONAL MEDICAL CENTER - MAIN,800 SOUTH MAIN STREET,CORONA,Riverside,92880,909-737-4343,"UNIVERSAL HEALTH SERVICES, INC.",SAM ITANI,Comparable,Investor,General,12 - INLAND COUNTIES,Non-DSH
106331168,EISENHOWER MEDICAL CENTER,39000 BOB HOPE DRIVE,RANCHO MIRAGE,Riverside,92270,760-340-3911,EISENHOWER MEDICAL CENTER,MARTIN MASSIELLO,Comparable,Non-Profit,General,12 - INLAND COUNTIES,Non-DSH
106331194,HEMET GLOBAL MEDICAL CENTER,1117 E. DEVONSHIRE AVE,HEMET,Riverside,92543,951-652-2811,"PHYSICIANS FOR HEALTHY HOSPITALS, INC.",PETER BARONOFF,Comparable,Investor,General,12 - INLAND COUNTIES,DSH
106331216,JOHN F. KENNEDY MEMORIAL HOSPITAL,47-111 MONROE STREET,INDIO,Riverside,92201,760-347-6191,TENET HEALTHCARE CORP,KAREN FAULIS,Comparable,Investor,General,12 - INLAND COUNTIES,DSH
106331288,PALO VERDE HOSPITAL,250 NORTH FIRST ST,BLYTHE,Riverside,92225-1702,760-922-5201,PALO VERDE HEALTH CARE DISTRICT,CHRISTA ROHDE,Comparable,District,General,#N/A,#N/A
106331326,SAN GORGONIO MEMORIAL HOSPITAL,600 N. HIGHLAND SPRINGS AVE,BANNING,Riverside,92220,951-845-1121,SAN GORGONIO MEMORIAL HEALTHCARE DISTRICT,STEVEN BARRON,Comparable,District,General,12 - INLAND COUNTIES,DSH
106334018,MENIFEE GLOBAL MEDICAL CENTER,"28400 McCall Blvd, Menifee, CA 92585",HEMET,Riverside,92543,951-679-8888,"PHYSICIANS FOR HEALTHY HOSPITALS, INC.",PETER BARONOFF,Comparable,Investor,General,12 - INLAND COUNTIES,Non-DSH
106334025,KAISER FOUNDATION HOSPITAL - RIVERSIDE,10800 MAGNOLIA AVENUE,RIVERSIDE,Riverside,92503,909-353-3091,KAISER FOUNDATION HOSPITALS,GREGORY ADAMS,Kaiser,Non-Profit,General,12 - INLAND COUNTIES,Non-DSH
106334048,KAISER FOUNDATION HOSPITAL - MORENO VALLEY,27300 IRIS AVENUE,MORENO VALLEY,Riverside,92555,951-243-2262,KAISER FOUNDATION HOSPITALS,GREGORY ADAMS,Kaiser,Non-Profit,General,12 - INLAND COUNTIES,Non-DSH
106334068,SOUTHWEST HEALTHCARE SYSTEM - MURRIETA,25500 MEDICAL CENTER DRIVE,MURRIETA,Riverside,92562,951-696-6000,"UNIVERSAL HEALTH SYSTEMS, INC.",JARED GILES,Comparable,Investor,General,12 - INLAND COUNTIES,Non-DSH
106334457,TELECARE RIVERSIDE COUNTY PSYCHIATRIC HEALTH FACILITY,47-915 OASIS STREET,INDIO,Riverside,92201,760-863-8664,TELECARE CORPORATION,HOWARD BAYLESS-BONVENTRE,PHF,Investor,Psychiatric,12 - INLAND COUNTIES,DSH
106334487,RIVERSIDE UNIVERSITY HEALTH SYSTEM MEDICAL CENTER,26520 CACTUS AVE,MORENO VALLEY,Riverside,92555-3911,951-486-4000,COUNTY OF RIVERSIDE,JENNIFER LYNN CRUIKSHANK,Comparable,City/County,General,12 - INLAND COUNTIES,DSH
106334533,REHABILITATION HOSPITAL OF SOUTHERN CALIFORNIA,70077 RAMON ROAD,RANCHO MIRAGE,Riverside,92270,760-895-6600,JOINT VENTURE EISENHOWER MED CTR & ERNEST HC,PATRICH PETRE,Comparable,Investor,Specialty,12 - INLAND COUNTIES,Non-DSH
106334564,TEMECULA VALLEY HOSPITAL,31700 TEMECULA PKWY,TEMECULA,Riverside,92592,951-331-2200,"UNIVERSAL HEALTH SYSTEMS, INC.",DARLENE WETTON,Comparable,Investor,General,12 - INLAND COUNTIES,Non-DSH
106334589,LOMA LINDA UNIVERSITY MEDICAL CENTER - MURRIETA,28062 BAXTER ROAD,MURRIETA,Riverside,92563,951-290-4000,LOMA LINDA UNIVERSITY HEALTH,TREVOR WRIGHT,Comparable,Non-Profit,General,12 - INLAND COUNTIES,Non-DSH
106334678,ENCOMPASS HEALTH REHABILITATION HOSPITAL OF MURRIETA,35470 WHITEWOOD ROAD,MURRIETA,Riverside,92563,951-246-6500,ENCOMPASS HEALTH CORPORATION,PERRY EBELTOFT,Comparable,Investor,Specialty,12 - INLAND COUNTIES,Non-DSH
106340041,HERITAGE OAKS ENRICHMENT CENTER - PHF,4378 AUBURN BOULEVARD,SACRAMENTO,Sacramento,95841,279-348-7200,"UNIVERSAL HEALTH SERVICES, INC.",SANTO MIRZA,PHF,Investor,Psychiatric,02 - GOLDEN EMPIRE,Non-DSH
106340913,KAISER FOUNDATION HOSPITAL - SACRAMENTO,2025 MORSE AVENUE,SACRAMENTO,Sacramento,95825,510-987-3380,KAISER FOUNDATION HOSPITALS,GREGORY ADAMS,Kaiser,Non-Profit,General,02 - GOLDEN EMPIRE,Non-DSH
106340947,MERCY GENERAL HOSPITAL,4001 J STREET,SACRAMENTO,Sacramento,95819,916-453-4545,COMMONSPIRIT HEALTH,TINA JOHNSON,Comparable,Non-Profit,General,02 - GOLDEN EMPIRE,Non-DSH
106340950,MERCY SAN JUAN MEDICAL CENTER,6501 COYLE AVENUE,CARMICHAEL,Sacramento,95608,916-537-5000,COMMONSPIRIT HEALTH,MICHAEL KORPIEL,Comparable,Non-Profit,General,02 - GOLDEN EMPIRE,DSH
106340951,METHODIST HOSPITAL - SACRAMENTO,7500 HOSPITAL DRIVE,SACRAMENTO,Sacramento,95823,916-423-3000,DIGNITY HEALTH,PHYLLIS BALTZ,Comparable,Non-Profit,General,02 - GOLDEN EMPIRE,DSH
106341051,SUTTER MEDICAL CENTER - SACRAMENTO,2801 L STREET,SACRAMENTO,Sacramento,95816,916-454-2222,SUTTER HEALTH,MIKE COHILL,Comparable,Non-Profit,General,02 - GOLDEN EMPIRE,Non-DSH
106341326,SACRAMENTO REHABILITATION HOSPITAL,10 ADVANTAGE COURT,SACRAMENTO,Sacramento,95834,279-499-1501,"ERNEST HEALTH HOLDINGS, LLC",JOE HUGAR,Comparable,Investor,Specialty,02 - GOLDEN EMPIRE,Non-DSH
106342344,KAISER FOUNDATION HOSPITAL - SOUTH SACRAMENTO,6600 BRUCEVILLE ROAD,SACRAMENTO,Sacramento,95823,510-987-3380,KAISER FOUNDATION HOSPITALS,GREGORY ADAMS,Kaiser,Non-Profit,General,02 - GOLDEN EMPIRE,Non-DSH
106344011,SACRAMENTO MENTAL HEALTH TREATMENT CENTER - PHF,2150 STOCKTON BLVD,SACRAMENTO,Sacramento,95817,916-875-1000,COUNTY OF SACRAMENTO,ANANTHA PANYALA,PHF,City/County,Psychiatric,02 - GOLDEN EMPIRE,Non-DSH
106344017,SUTTER CENTER FOR PSYCHIATRY,7700 FOLSOM BLVD,SACRAMENTO,Sacramento,95826,916-386-3000,SUTTER HEALTH,RICHARD PALMISANO,Comparable,Non-Profit,Psychiatric,02 - GOLDEN EMPIRE,Non-DSH
106344029,MERCY HOSPITAL - FOLSOM,1650 CREEKSIDE DRIVE,FOLSOM,Sacramento,95630,916-938-7400,COMMONSPIRIT HEALTH,LISA HAUSMANN,Comparable,Non-Profit,General,02 - GOLDEN EMPIRE,Non-DSH
106344035,VIBRA HOSPITAL OF SACRAMENTO,330 MONTROSE DRIVE,FOLSOM,Sacramento,95630,916-351-9151,VIBRA HEALTHCARE,JILL MCWILLIAMS,Comparable,Investor,Specialty,02 - GOLDEN EMPIRE,Non-DSH
106344114,SHRINERS HOSPITAL FOR CHILDREN - NORTHERN CALIFORNIA,2425 STOCKTON BLVD,SACRAMENTO,Sacramento,95817,916-453-2000,SHRINERS HOSPITALS FOR CHILDREN NORTHERN CALIFORNIA,KENNY PAWLEK,Other Non-Comparable,Non-Profit,Children,02 - GOLDEN EMPIRE,Non-DSH
106344170,CRESTWOOD PSYCHIATRIC HEALTH FACILITY - CARMICHAEL,4741 ENGLE ROAD,CARMICHAEL,Sacramento,95608,916-977-0949,"CRESTWOOD BEHAVIORAL HEALTH, INC.",SHAWNA VALVERDE,PHF,Investor,Psychiatric,02 - GOLDEN EMPIRE,Non-DSH
106344188,CRESTWOOD PSYCHIATRIC HEALTH FACILITY - SACRAMENTO,"2600 STOCKTON BLVD, STE B",SACRAMENTO,Sacramento,95817,916-520-2785,"CRESTWOOD BEHAVIORAL HEALTH, INC.",ADRAIN SMITH,PHF,Investor,Psychiatric,02 - GOLDEN EMPIRE,Non-DSH
106344210,"SACRAMENTO BEHAVIORAL HEALTHCARE HOSPITAL, LLC",1400 EXPO PARKWAY,SACRAMENTO,Sacramento,95815,877-978-4848,SIGNATURE HEALTH CARE,JOHN BEALL,Comparable,Investor,Psychiatric,02 - GOLDEN EMPIRE,Non-DSH
106350784,HAZEL HAWKINS MEMORIAL HOSPITAL,911 SUNSET DRIVE,HOLLISTER,San Benito,95023,831-637-5711,SAN BENITO HEALTH CARE DISTRICT,MARY CASILLAS,Comparable,District,General,08 - MID-COAST,DSH
106361110,BEAR VALLEY COMMUNITY HOSPITAL,"41870 GARSTIN, PO BOX 1649",BIG BEAR,San Bernardino,92315,909-866-6501,BEAR VALLEY COMMUNITY HOSPITAL,EVAN RAYNER,Comparable,District,General,12 - INLAND COUNTIES,DSH
106361144,CHINO VALLEY MEDICAL CENTER,5451 WALNUT AVENUE,CHINO,San Bernardino,91710,909-464-8600,VERITAS HEALTH SERVICES INCORPORATED,TIMOTHY MORAN,Comparable,Investor,General,12 - INLAND COUNTIES,DSH
106361166,MONTCLAIR HOSPITAL MEDICAL CENTER,500 SAN BERNARDINO STREET,MONTCLAIR,San Bernardino,91763,909-625-5411,"PRIME HEALTHCARE SERVICES FOUNDATION, INC.",GAIL AVIADO,Comparable,Non-Profit,General,12 - INLAND COUNTIES,DSH
106361223,KAISER FOUNDATION HOSPITAL - FONTANA,9961 SIERRA AVENUE,FONTANA,San Bernardino,92335,909-427-5015,KAISER FOUNDATION HOSPITALS,GREGORY ADAMS,Kaiser,Non-Profit,General,12 - INLAND COUNTIES,Non-DSH
106361246,LOMA LINDA UNIVERSITY MEDICAL CENTER,11234 ANDERSON ST,LOMA LINDA,San Bernardino,92354,909-558-4000,LOMA LINDA UNIVERSITY HEALTH,TREVOR WRIGHT,Comparable,Non-Profit,General,12 - INLAND COUNTIES,DSH
106361266,MOUNTAINS COMMUNITY HOSPITAL,29101 HOSPITAL ROAD,LAKE ARROWHEAD,San Bernardino,92352,909-336-3651,SAN BERNARDINO MOUNTAINS COMMUNITY HOSPITAL DISTRICT,MARK TURNER,Comparable,District,General,12 - INLAND COUNTIES,DSH
106361308,REDLANDS COMMUNITY HOSPITAL,350 TERRACINA BLVD,REDLANDS,San Bernardino,92373,909-335-5500,REDLANDS COMMUNITY HOSPITAL,JAMES HOLMES,Comparable,Non-Profit,General,12 - INLAND COUNTIES,Non-DSH
106361318,SAN ANTONIO REGIONAL HOSPITAL,999 SAN BERNARDINO ROAD,UPLAND,San Bernardino,91786-4920,909-985-2811,SAN ANTONIO REGIONAL HOSPITAL,JOHN CHAPMAN,Comparable,Non-Profit,General,12 - INLAND COUNTIES,Non-DSH
106361323,COMMUNITY HOSPITAL OF SAN BERNARDINO,1805 MEDICAL CENTER DRIVE,SAN BERNARDINO,San Bernardino,92411,909-887-6333,DIGNITY HEALTH,JUNE COLLISON,Comparable,Non-Profit,General,12 - INLAND COUNTIES,DSH
106361339,ST. BERNARDINE MEDICAL CENTER,2101 N. WATERMAN AVE.,SAN BERNARDINO,San Bernardino,92404,909-883-8711,DIGNITY HEALTH,DOUGLAS KLEAM,Comparable,Non-Profit,General,12 - INLAND COUNTIES,DSH
106361343,PROVDENCE ST. MARY MEDICAL CENTER,18300 HIGHWAY 18,APPLE VALLEY,San Bernardino,92307,760-242-2311,ST. JOSEPH HEALTH SYSTEM,RANDALL CASTILLO,Comparable,Non-Profit,General,12 - INLAND COUNTIES,DSH
106361370,VICTOR VALLEY GLOBAL MEDICAL CENTER,15248 ELEVENTH STREET,VICTORVILLE,San Bernardino,92395,760-245-8691,KALI P. CHADHURI,PETER BARONOFF,Comparable,Investor,General,12 - INLAND COUNTIES,DSH
106361458,COLORADO RIVER MEDICAL CENTER,1401 BAILEY AVENUE,NEEDLES,San Bernardino,92363,760-326-7267,"COMMUNITY HEALTH PARTNER, INC.",BING LUM,Comparable,Non-Profit,General,12 - INLAND COUNTIES,DSH
106362041,HI-DESERT MEDICAL CENTER,6601 WHITE FEATHER RD,JOSHUA TREE,San Bernardino,92252,760-366-6262,TENET HEALTHCARE CORP,KAREN FAULIS,Comparable,Investor,General,12 - INLAND COUNTIES,DSH
106364014,LOMA LINDA UNIVERSITY BEHAVIORAL MEDICINE CENTER,1710 BARTON ROAD,REDLANDS,San Bernardino,92373,909-558-9200,LOMA LINDA UNIVERSITY HEALTH,TREVOR WRIGHT,Comparable,Non-Profit,Psychiatric,12 - INLAND COUNTIES,DSH
106364050,CANYON RIDGE HOSPITAL,5353 G STREET,CHICO,San Bernardino,91710,909-590-3700,"UNIVERSAL HEALTH SERVICES, INC.",STEPHANIE BERNIER,Comparable,Investor,Psychiatric,12 - INLAND COUNTIES,Non-DSH
106364121,BALLARD REHABILITATION HOSPITAL,1760 W. 16TH ST,SAN BERNARDINO,San Bernardino,92411,619-260-8300,VIBRA HEALTHCARE,MARY HUNT,Comparable,Investor,General,12 - INLAND COUNTIES,Non-DSH
106364144,DESERT VALLEY HOSPITAL,16850 BEAR VALLEY ROAD,VICTORVILLE,San Bernardino,92395,760-241-8000,DR. PREM N. REDDY,DANA ROESLER,Comparable,Investor,General,12 - INLAND COUNTIES,DSH
106364188,KINDRED HOSPITAL - RANCHO,10841 WHITE OAK AVENUE,RANCHO CUCAMONGA,San Bernardino,91730,909-581-6400,KINDRED HEALTHCARE,JULIE MYERS,Comparable,Investor,General,12 - INLAND COUNTIES,Non-DSH
106364231,ARROWHEAD REGIONAL MEDICAL CENTER,400 N PEPPER AVE,COLTON,San Bernardino,92324,909-580-1000,COUNTY OF SAN BERNARDINO,WILLIAM GILBERT,Comparable,City/County,General,12 - INLAND COUNTIES,DSH
106364430,BARSTOW COMMUNITY HOSPITAL,820 EAST MOUNTAIN VIEW STREET,BARSTOW,San Bernardino,92311,760-256-1761,QUORUM HEALTH CORPORATION,ADAM LORIS,Comparable,Investor,General,12 - INLAND COUNTIES,DSH
106364451,TOTALLY KIDS REHABILITATION HOSPITAL,1720 MOUNTAIN VIEW AVENUE,LOMA LINDA,San Bernardino,92354,909-796-6915,DOUG PADGETT,DOUG PADGETT,Comparable,Investor,Children,12 - INLAND COUNTIES,Non-DSH
106370028,KAISER FOUNDATION HOSPITAL - SAN MARCOS,360 RUSH DRIVE,SAN MARCOS,San Diego,92078,442-385-7716,KAISER FOUNDATION HOSPITALS,GREGORY ADAMS,Comparable,Non-Profit,General,14 - SAN DIEGO / IMPERIAL,Non-DSH
106370033,"CASA PALMERA CARE CENTER, LLC",14750 EL CAMINO REAL,DEL MAR,San Diego,92014,858-481-4411,"BEHAVIORAL HEALTH HOLDINGS II, INC.",JOHN PELOQUIN,Comparable,Investor,Specialty,#N/A,#N/A
106370673,RADY CHILDREN'S HOSPITAL - SAN DIEGO,3020 CHILDRENS WAY,SAN DIEGO,San Diego,92123,858-576-1700,RADY CHILDRENS HOSPITAL - SAN DIEGO,"PATRICIO A. FRIAS, M.D.",Comparable,Non-Profit,Children,14 - SAN DIEGO / IMPERIAL,DSH
106370721,KINDRED HOSPITAL - SAN DIEGO,1940 EL CAHON BLVD,SAN DIEGO,San Diego,92104,619-453-4500,KINDRED HEALTHCARE,MARC LEMON,Comparable,Investor,General,14 - SAN DIEGO / IMPERIAL,Non-DSH
106370730,KAISER FOUNDATION HOSPITAL - SAN DIEGO,4647 ZION AVENUE,SAN DIEGO,San Diego,92120,619-528-3173,KAISER FOUNDATION HOSPITALS,GREGORY ADAMS,Kaiser,Non-Profit,General,14 - SAN DIEGO / IMPERIAL,Non-DSH
106370745,SHARP MESA VISTA HOSPITAL,7850 VISTA HILL AVENUE,SAN DIEGO,San Diego,92123,858-694-8345,SHARP HEALTHCARE,TRISHA KHALEGHI,Comparable,Non-Profit,Psychiatric,14 - SAN DIEGO / IMPERIAL,Non-DSH
106370749,ALVARADO PARKWAY INSTITUTE BHS,7050 PARKWAY DRIVE,LA MESA,San Diego,92042,619-465-4411,"BH-SD OPCO, LLC",MAUREEN WOMACK,Comparable,Investor,Psychiatric,14 - SAN DIEGO / IMPERIAL,Non-DSH
106370759,PARADISE VALLEY HOSPITAL,2400 EAST 4TH STREET,NATIONAL CITY,San Diego,91950,619-470-4280,"PRIME HEALTHCARE SERVICES, INC.",NEERAV JADEJA,Comparable,Investor,General,14 - SAN DIEGO / IMPERIAL,DSH
106370771,SCRIPPS MEMORIAL HOSPITAL - LA JOLLA,9888 GENESSE AVE,LA JOLLA,San Diego,92037,858-626-4123,SCRIPPS HEALTH - LA JOLLA,CARL ETTER,Comparable,Non-Profit,General,14 - SAN DIEGO / IMPERIAL,Non-DSH
106370780,TRI-CITY MEDICAL CENTER,4002 VISTA WAY,OCEANSIDE,San Diego,92056,706-724-8411,TRI-CITY HOSPITAL DISTRICT,STEVE DIETLIN,Comparable,District,General,14 - SAN DIEGO / IMPERIAL,Non-DSH
106370782,UNIVERSITY OF CALIFORNIA SAN DIEGO MEDICAL CENTER,200 W. ARBOR DRIVE,SAN DIEGO,San Diego,92103-9981,619-543-6222,REGENTS OF THE UNIVERSITY OF CALIFORNIA,PATTY MAYSENT,Comparable,Non-Profit,General,14 - SAN DIEGO / IMPERIAL,DSH
106370977,PALOMAR MEDICAL CENTER POWAY,15615 POMERADO ROAD,POWAY,San Diego,92064,760-485-6511,PALOMAR HEALTH,DIANE L. HANSEN,Comparable,District,General,14 - SAN DIEGO / IMPERIAL,Non-DSH
106371256,SCRIPPS GREEN HOSPITAL,10666 NORTH TORREY PINES ROAD,LA JOLLA,San Diego,92037-9985,858-455-9100,SCRIPPS HEALTH,CARL ETTER,Comparable,Non-Profit,Specialty,14 - SAN DIEGO / IMPERIAL,Non-DSH
106371394,SCRIPPS MEMORIAL HOSPITAL - ENCINITAS,354 SANTA FE DRIVE,ENCINITAS,San Diego,92024,760-633-6501,SCRIPPS HEALTH,CARL ETTER,Comparable,Non-Profit,General,14 - SAN DIEGO / IMPERIAL,Non-DSH
106374024,AURORA SAN DIEGO,11878 AVENUE OF INDUSTRY,SAN DIEGO,San Diego,92128,858-487-3200,SIGNATURE HEALTHCARE SERVICES,ALAIN AZCONA,Comparable,Investor,Psychiatric,14 - SAN DIEGO / IMPERIAL,Non-DSH
106374049,SHARP MCDONALD CENTER,7989 LINDA VISTA ROAD,SAN DIEGO,San Diego,92123-1489,619-576-1200,SHARP HEALTHCARE,TRISHA KHALEGHI,Comparable,Non-Profit,Specialty,14 - SAN DIEGO / IMPERIAL,Non-DSH
106374055,SAN DIEGO COUNTY PSYCHIATRIC HOSPITAL,3853 ROSECRANS STREET,SAN DIEGO,San Diego,92110,619-692-8200,COUNTY OF SAN DIEGO,ANGELA WARNEKE,LTC Emphasis,City/County,Psychiatric,14 - SAN DIEGO / IMPERIAL,Non-DSH
106374094,SELECT SPECIALTY HOSPITAL - SAN DIEGO,555 WASHINGTON STREET,SAN DIEGO,San Diego,92103,619-260-8300,SELECT MEDICAL CORPORATION,TOMMY LE,Comparable,Investor,Specialty,14 - SAN DIEGO / IMPERIAL,Non-DSH
106374572,PALOMAR REHABILITATION INSTITUTE,2181 CITRICADO PKWY,ESCONDIDO,San Diego,92029,442-277-6100,LIFEPOINT HEALTH,JENNIFER WHITNEY,Comparable,Investor,Specialty,14 - SAN DIEGO / IMPERIAL,Non-DSH
106380842,JEWISH HOME,302 SILVER AVENUE,SAN FRANCISCO,San Francisco,94112,415-469-2200,HEBREW HOME FOR THE AGED,MARY CONNICK,LTC Emphasis,Non-Profit,Psychiatric,04 - WEST BAY,Non-DSH
106380857,KAISER FOUNDATION HOSPITAL - SAN FRANCISCO,2425 GEARY BOULEVARD,SAN FRANCISCO,San Francisco,94115,510-987-3380,KAISER FOUNDATION HOSPITALS,GREGORY ADAMS,Kaiser,Non-Profit,General,04 - WEST BAY,Non-DSH
106380865,LAGUNA HONDA HOSPITAL AND REHABILITATION CENTER,375 LAGUNA HONDA BLVD,SAN FRANCISCO,San Francisco,94116,415-759-3371,CITY AND COUNTY OF SAN FRANCISCO,LILY CONOVER,LTC Emphasis,City/County,General,04 - WEST BAY,Non-DSH
106380868,LANGLEY PORTER PSYCHIATRIC INSTITUTE,"401 PARNASSUS AVE, BOX 0984",SAN FRANCISCO,San Francisco,94143,415-476-7000,REGENTS OF THE UNIVERSITY OF CALIFORNIA,MATTHEW STATE,Comparable,Non-Profit,Psychiatric,04 - WEST BAY,Non-DSH
106380939,ZUCKERBERG SAN FRANCISCO GENERAL HOSPITAL & TRAUMA CENTER,1001 POTRERO AVE,SAN FRANCISCO,San Francisco,94110,415-206-8100,CITY AND COUNTY OF SAN FRANCISCO,"SUSAN P. ERLICH, MD",Comparable,City/County,General,04 - WEST BAY,DSH
106380960,ST. FRANCIS MEMORIAL HOSPITAL,900 HYDE STREET,SAN FRANCISCO,San Francisco,94109,415-353-6000,DIGNITY HEALTH,DARYN KUMAR,Comparable,Non-Profit,General,04 - WEST BAY,Non-DSH
106380965,ST. MARY'S MEDICAL CENTER - SAN FRANCISCO,450 STANYAN STREET,SAN FRANCISCO,San Francisco,94117,415-668-1000,COMMONSPIRIT HEALTH,DARYN KUMAR,Comparable,Non-Profit,General,04 - WEST BAY,Non-DSH
106381154,UCSF MEDICAL CENTER,505 PARNASSUS AVENUE,SAN FRANCISCO,San Francisco,94143,415-476-3001,REGENTS OF THE UNIVERSITY OF CALIFORNIA,SURESH GUNASEKARAN,Comparable,Non-Profit,General,04 - WEST BAY,DSH
106382715,CHINESE HOSPITAL,845 JACKSON STREET,SAN FRANCISCO,San Francisco,94133,415-982-2400,CHINESE HOSPITAL ASSOCIATION,JIAN ZHANG,Comparable,Non-Profit,General,04 - WEST BAY,Non-DSH
106384176,CALIFORNIA PACIFIC MEDICAL CENTER - VAN NESS CAMPUS,1101 VAN NESS AVE,SAN FRANCISCO,San Francisco,94109,415-600-6000,SUTTER WEST BAY HOSPITALS,HAMILA KOWNACKI,Comparable,Non-Profit,General,04 - WEST BAY,Non-DSH
106384202,CALIFORNIA PACIFIC MEDICAL CENTER - MISSION BERNAL CAMPUS,3555 CESAR CHAVEZ STREET,SAN FRANCISCO,San Francisco,94110,415-600-8600,SUTTER WEST BAY HOSPITALS,HAMILA KOWNACKI,Comparable,Non-Profit,General,04 - WEST BAY,Non-DSH
106390923,ADVENTIST HEALTH LODI MEMORIAL,975 SOUTH FAIRMONT AVENUE,LODI,San Joaquin,95240,209-334-3411,"LODI MEMORIAL HOSPITAL ASSOCIATION, INC.",BROOKE MCCOLLOUGH,Comparable,Non-Profit,General,06 - NORTH SAN JOAQUIN,Non-DSH
106391010,SAN JOAQUIN GENERAL HOSPITAL,500 WEST HOSPITAL ROAD,FRENCH CAMP,San Joaquin,95231,209-468-6000,COUNTY OF SAN JOAQUIN,RICHARD CASTRO,Comparable,City/County,General,06 - NORTH SAN JOAQUIN,DSH
106391056,SUTTER TRACY COMMUNITY HOSPITAL,1420 N TRACY BLVD,TRACY,San Joaquin,95376,209-835-1500,SUTTER CENTRAL VALLEY HOSPITALS,SCOTT KNIGHT,Comparable,Non-Profit,General,06 - NORTH SAN JOAQUIN,Non-DSH
106392232,ST. JOSEPH'S BEHAVIORAL HEALTH CENTER,2510 NORTH CALIFORNIA STREET,STOCKTON,San Joaquin,95204,209-461-2000,"PORT CITY OPERATING COMPANY, LLC",PAUL RAINS,Comparable,Non-Profit,Psychiatric,06 - NORTH SAN JOAQUIN,Non-DSH
106394003,SAN JOAQUIN - PHF,1212 N. CALIFORNIA STREET,STOCKTON,San Joaquin,95202,209-468-8750,COUNTY OF SAN JOAQUIN,TONY VARTAN,PHF,City/County,Psychiatric,06 - NORTH SAN JOAQUIN,Non-DSH
106394009,KAISER FOUNDATION HOSPITAL - MANTECA,1777 W. YOSEMITE AVENUE,MANTECA,San Joaquin,95336,209-825-3500,KAISER FOUNDATION HOSPITALS,GREGORY ADAMS,Kaiser,Non-Profit,General,06 - NORTH SAN JOAQUIN,Non-DSH
106394128,STOCKTON REGIONAL REHABILITATION HOSPITAL,607 E MAGNOLIA ST,STOCKTON,San Joaquin,95202-1846,209-687-5490,"ERNEST HEALTH HOLDINGS, LLC",RICHARD TROGMAN,Comparable,Investor,Specialty,06 - NORTH SAN JOAQUIN,Non-DSH
106400480,FRENCH HOSPITAL MEDICAL CENTER - SAN LUIS OBISPO,1911 JOHNSON AVENUE,SAN LUIS OBISPO,San Luis Obispo,93401,805-542-6300,DIGNITY HEALTH,ALAN IFTINIUK,Comparable,Non-Profit,General,08 - MID-COAST,Non-DSH
106400524,SIERRA VISTA REGIONAL MEDICAL CENTER,1010 MURRAY AVENUE,SAN LUIS OBISPO,San Luis Obispo,93405,805-546-7600,TENET HEALTHCARE CORP,MARK LISA,Comparable,Investor,General,08 - MID-COAST,Non-DSH
106400683,ATASCADERO STATE HOSPITAL,10333 EL CAMINO REAL,ATASCADERO,San Luis Obispo,93422,805-468-2000,STATE OF CALIFORNIA,JASON BLACK,State,State,Specialty,08 - MID-COAST,Non-DSH
106410782,SAN MATEO MEDICAL CENTER,222 W. 39TH AVENUE,SAN MATEO,San Mateo,94403,650-573-2711,COUNTY OF SAN MATEO,"CHESTER KUNNAPPILLY, MD",Comparable,City/County,General,04 - WEST BAY,DSH
106410806,KAISER FOUNDATION HOSPITAL - SOUTH SAN FRANCISCO,1200 EL CAMINO REAL,SOUTH SAN FRANCISCO,San Mateo,94080,510-987-3380,KAISER FOUNDATION HOSPITALS,GREGORY ADAMS,Kaiser,Non-Profit,General,04 - WEST BAY,Non-DSH
106410817,AHMC SETON MEDICAL CENTER,1900 SULLIVAN AVENUE,DALY CITY,San Mateo,94015,650-992-4000,"AHMC HEALTHCARE, INC.",SARKIS VARTANIAN,Comparable,Investor,General,04 - WEST BAY,DSH
106410852,MILLS-PENINSULA MEDICAL CENTER,1501 TROUSDALE DRIVE,BURLINGAME,San Mateo,94010,650-696-5400,SUTTER BAY HOSPITALS,JANET A. WAGNER,Comparable,Non-Profit,General,04 - WEST BAY,Non-DSH
106410891,SEQUOIA HOSPITAL,170 ALAMEDA DE LAS PULGAS,REDWOOD CITY,San Mateo,94062-2799,650-369-5811,DIGNITY HEALTH,BILL GRAHAM,Comparable,Non-Profit,General,04 - WEST BAY,Non-DSH
106414139,KAISER FOUNDATION HOSPITAL - REDWOOD CITY,1150 VETERANS BOULEVARD,REDWOOD CITY,San Mateo,94063,510-987-3380,KAISER FOUNDATION HOSPITALS,GREGORY ADAMS,Kaiser,Non-Profit,General,04 - WEST BAY,Non-DSH
106420483,GOLETA VALLEY COTTAGE HOSPITAL,351 S. PATTERSON AVENUE,SANTA BARBARA,Santa Barbara,93111,805-967-3411,GOLETA VALLEY COTTAGE HOSPITAL,RONALD C. WERFT,Comparable,Non-Profit,General,10 - SANTA BARBARA / VENTURA,Non-DSH
106420491,LOMPOC VALLEY MEDICAL CENTER,1515 E. OCEAN AVENUE,LOMPOC,Santa Barbara,93436,805-737-3300,LOMPOC VALLEY MEDICAL CENTER,STEPHEN POPKIN,Comparable,District,General,10 - SANTA BARBARA / VENTURA,Non-DSH
106420493,MARIAN MEDICAL CENTER,1400 EAST CHURCH STREET,SANTA MARIA,Santa Barbara,93454-5906,805-739-3000,DIGNITY HEALTH,SUE ANDERSEN,Comparable,Non-Profit,General,10 - SANTA BARBARA / VENTURA,Non-DSH
106420514,SANTA BARBARA COTTAGE HOSPITAL,400 W. PUEBLO,SANTA BARBARA,Santa Barbara,93105,805-682-7111,SANTA BARBARA COTTAGE HOSPITAL,RONALD C. WERFT,Comparable,Non-Profit,General,10 - SANTA BARBARA / VENTURA,Non-DSH
106420522,SANTA YNEZ VALLEY COTTAGE HOSPITAL,2050 VIBORG ROAD,SOLVANG,Santa Barbara,93463,805-688-6431,SANTA YNEZ VALLEY COTTAGE HOSPITAL,RONALD C. WERFT,Comparable,Non-Profit,General,10 - SANTA BARBARA / VENTURA,Non-DSH
106430763,EL CAMINO HEALTH,2500 GRANT ROAD,MOUNTAIN VIEW,Santa Clara,94040,650-940-7300,EL CAMINO HOSPITAL DISTRICT,DAN WOODS,Comparable,Non-Profit,General,07 - SANTA CLARA,Non-DSH
106430883,SANTA CLARA VALLEY MEDICAL CENTER,751 SOUTH BASCOM AVENUE,SAN JOSE,Santa Clara,95128,408-885-5000,COUNTY OF SANTA CLARA,PAUL LORENZ,Comparable,City/County,General,07 - SANTA CLARA,DSH
106430905,STANFORD HEALTH CARE,300 PASTEUR DRIVE,STANFORD,Santa Clara,94305,650-723-4000,STANFORD HEALTH CARE,DAVID ENTWISTLE,Comparable,Non-Profit,General,07 - SANTA CLARA,Non-DSH
106431506,KAISER FOUNDATION HOSPITAL - SAN JOSE,250 HOSPITAL PARKWAY,SAN JOSE,Santa Clara,95119,510-987-3380,KAISER FOUNDATION HOSPITALS,GREGORY ADAMS,Kaiser,Non-Profit,General,07 - SANTA CLARA,Non-DSH
106434032,SAN JOSE BEHAVIORAL HEALTH,455 SILICON VALLEY BOULEVARD,SAN JOSE,Santa Clara,95138,669-900-1731,"SJBH, LLC",STEVE VANDERPOEL,Comparable,Investor,Psychiatric,07 - SANTA CLARA,Non-DSH
106434040,LUCILE SALTER PACKARD CHILDREN'S HOSPITAL AT STANFORD,725 WELCH ROAD,PALO ALTO,Santa Clara,94304,650-497-8000,LUCILE SALTER PACKARD CHILDRENS HOSPITAL AT STANFORD,PAUL A. KING,Comparable,Non-Profit,Children,07 - SANTA CLARA,Non-DSH
106434051,CHILDREN'S HEALTHCARE ORGANIZATION OF NORTHERN CA - PEDIATRIC HOSPITAL,3777 S BASCOM AVENUE,CAMPBELL,Santa Clara,95008,408-558-3640,K.MCGUIRE & D. NICCUM,KENNETH MCGUIRE,Comparable,Investor,General,07 - SANTA CLARA,Non-DSH
106434153,KAISER FOUNDATION HOSPITAL - SANTA CLARA,700 LAWRENCE EXPRESSWAY,SANTA CLARA,Santa Clara,95051,510-987-3380,KAISER FOUNDATION HOSPITALS,GREGORY ADAMS,Kaiser,Non-Profit,General,07 - SANTA CLARA,Non-DSH
106434218,KAISER PERMANENTE PHF - SANTA CLARA,3840 HOMESTEAD ROAD,SANTA CLARA,Santa Clara,95051,408-851-1000,KAISER FOUNDATION HOSPITALS,GREGORY ADAMS,PHF,Non-Profit,Psychiatric,07 - SANTA CLARA,Non-DSH
106440755,DOMINICAN HOSPITAL,1555 SOQUEL DRIVE,SANTA CRUZ,Santa Cruz,95065,831-462-7700,DIGNITY HEALTH,"NANETTE MICKIEWICZ, MD",Comparable,Non-Profit,General,08 - MID-COAST,Non-DSH
106444012,SUTTER MATERNITY AND SURGERY CENTER OF SANTA CRUZ,2900 CHANTICLEER AVENUE,SANTA CRUZ,Santa Cruz,95065,831-477-2200,SUTTER HEALTH,STEPHEN GRAY,Comparable,Non-Profit,General,08 - MID-COAST,Non-DSH
106444029,TELECARE SANTA CRUZ - PHF,"2250 SOQUEL AVE, SUITE 150",SANTA CRUZ,Santa Cruz,95062,831-600-2801,TELECARE CORPORATION,KAREN RICHARDS,PHF,Investor,Psychiatric,08 - MID-COAST,DSH
106450940,SHASTA REGIONAL MEDICAL CENTER,1100 BUTTE STREET,REDDING,Shasta,96001,530-244-5400,"PRIME HEALTHCARE SERVICES, INC.",CASEY FATCH,Comparable,Investor,General,01 - NORTHERN CALIFORNIA,Non-DSH
106450949,MERCY MEDICAL CENTER - REDDING,2175 ROSALINE AVE,REDDING,Shasta,96001,530-225-6000,COMMONSPIRIT HEALTH,TODD SMITH,Comparable,Non-Profit,General,01 - NORTHERN CALIFORNIA,Non-DSH
106454068,RESTPADD PSYCHIATRIC HEALTH FACILITY,2750 EUREKA WAY,REDDING,Shasta,96001,530-262-6700,O NWANGBURUKA,O NWANGBURUKA,PHF,Investor,Psychiatric,01 - NORTHERN CALIFORNIA,Non-DSH
106470871,MERCY MEDICAL CENTER - MT. SHASTA,914 PINE STREET,MT. SHASTA,Siskiyou,96067,530-926-6111,COMMONSPIRIT HEALTH,RODGER PAGE,Comparable,Non-Profit,General,01 - NORTHERN CALIFORNIA,DSH
106474007,FAIRCHILD MEDICAL CENTER,444 BRUCE STREET,YREKA,Siskiyou,96097,530-842-4121,FAIRCHILD MEDICAL CENTER,JONATHON ANDRUS,Comparable,Non-Profit,General,01 - NORTHERN CALIFORNIA,Non-DSH
106480989,KAISER FOUNDATION HOSPITAL REHABILITATION CENTER - VALLEJO,975 SERENO DRIVE,VALLEJO,Solano,94589,510-987-3380,KAISER FOUNDATION HOSPITALS,GREGORY ADAMS,Kaiser,Non-Profit,General,03 - NORTH BAY,Non-DSH
106481015,ADVENTIST HEALTH VALLEJO,525 OREGON STREET,VALLEJO,Solano,94590,707-648-2200,ST HELENA HOSPITAL,"STEVE HERBER, M.D.",Comparable,Non-Profit,Psychiatric,03 - NORTH BAY,Non-DSH
106481094,SUTTER SOLANO MEDICAL CENTER,300 HOSPITAL DRIVE,VALLEJO,Solano,94589,707-554-4444,SUTTER HEALTH,KELLY JAEGAR-JACKSON,Comparable,Non-Profit,General,03 - NORTH BAY,DSH
106484044,KAISER FOUNDATION HOSPITAL - VACAVILLE,1 QUALITY DRIVE,VACAVILLE,Solano,95688,707-624-4000,KAISER FOUNDATION HOSPITALS,GREGORY ADAMS,Kaiser,Non-Profit,General,03 - NORTH BAY,Non-DSH
106490040,SONOMA COUNTY HEALING CENTER - PHF,7440 RANCHO LOS GUILICOS ROAD,SANTA ROSA,Sonoma,95409,707-639-4696,"CRESTWOOD BEHAVIORAL HEALTH, INC.",DANIEL GARCIA,Comparable,Investor,Psychiatric,03 - NORTH BAY,Non-DSH
106491076,SONOMA VALLEY HOSPITAL,347 ANDRIEUX STREET,SONOMA,Sonoma,95476,707-935-5000,SONOMA VALLEY HEALTHCARE DISTRICT,JOHN HENNELLY,Comparable,District,General,03 - NORTH BAY,Non-DSH
106494019,KAISER FOUNDATION HOSPITAL - SANTA ROSA,401 BICENTENNIAL WAY,SANTA ROSA,Sonoma,95403,510-987-3380,KAISER FOUNDATION HOSPITALS,GREGORY ADAMS,Kaiser,Non-Profit,General,03 - NORTH BAY,Non-DSH
106494048,AURORA BEHAVIORAL HEALTHCARE - SANTA ROSA,1287 FULTON ROAD,SANTA ROSA,Sonoma,95401,707-800-7700,SIGNATURE HEALTHCARE SERVICES,SUSAN ROSE,Comparable,Investor,Psychiatric,03 - NORTH BAY,Non-DSH
106494106,SUTTER SANTA ROSA REGIONAL HOSPITAL,30 MARK WEST SPRINGS ROAD,SANTA ROSA,Sonoma,95405,707-576-4200,SUTTER HEALTH,DAN PETERSON,Comparable,Non-Profit,General,03 - NORTH BAY,Non-DSH
106500852,DOCTORS MEDICAL CENTER - MODESTO,1441 FLORIDA AVE,MODESTO,Stanislaus,95350,209-578-1211,TENET HEALTHCARE CORPORATION,JAY KRISHNASWAMY,Comparable,Investor,General,06 - NORTH SAN JOAQUIN,DSH
106500867,EMANUEL MEDICAL CENTER,825 DELBON AVENUE,TURLOCK,Stanislaus,95382,209-667-4200,"DOCTORS MEDICAL CENTER OF MODESTO, INC.","MURALI N. NAIDU, MD, FACS",Comparable,Investor,General,06 - NORTH SAN JOAQUIN,Non-DSH
106500939,MEMORIAL HOSPITAL MODESTO,1700 COFFEE ROAD,MODESTO,Stanislaus,95355,209-526-4500,SUTTER CENTRAL VALLEY HOSPITALS,"GINO PATRIZIO, JD, MHA",Comparable,Non-Profit,General,06 - NORTH SAN JOAQUIN,Non-DSH
106504038,STANISLAUS SURGICAL HOSPITAL,1421 OAKDALE ROAD,MODESTO,Stanislaus,95355,209-572-2700,STANISLAUS SURGICAL HOSPITAL,GLENN COZEN,Comparable,Investor,Specialty,06 - NORTH SAN JOAQUIN,Non-DSH
106504079,ENCOMPASS HEALTH REHABILITATION HOSPITAL OF MODESTO,1303 MABLE AVE,MODESTO,Stanislaus,95355,209-857-3400,ENCOMPASS HEALTH CORPORATION,BETH BACHER,Comparable,Investor,Specialty,06 - NORTH SAN JOAQUIN,Non-DSH
106504081,TELECARE STANISLAUS COUNTY - PHF,1904 RICHLAND AVENUE,CERES,Stanislaus,95307,209-300-8800,TELECARE CORPORATION,CHRISTIN MONTOYA,PHF,Investor,Psychiatric,06 - NORTH SAN JOAQUIN,DSH
106514001,SUTTER - YUBA - PHF,"1965 LIVE OAK BLVD, STE A",YUBA CITY,Sutter,95991,530-822-7200,COUNTY OF SUTTER,SARAH EBERHARDT-RIOS,PHF,City/County,Psychiatric,02 - GOLDEN EMPIRE,Non-DSH
106514030,SUTTER SURGICAL HOSPITAL - NORTH VALLEY,455 PLUMAS BLVD,YUBA CITY,Sutter,95991,530-749-5700,SUTTER VALLEY MEDCIAL FOUNDATION,JUDITH L. ROBINSON,Comparable,Investor,General,02 - GOLDEN EMPIRE,Non-DSH
106514033,NORTH VALLEY BEHAVIORAL HEALTH - PHF,1535 PLUMAS COURT,YUBA CITY,Sutter,95991,530-790-2520,"NORTH VALLEY BEHAVIORAL HEALTH, LLC",ARNE HYSON,PHF,Investor,Psychiatric,02 - GOLDEN EMPIRE,Non-DSH
106521041,ST. ELIZABETH COMMUNITY HOSPITAL,2550 SISTER MARY COLUMBA DRIVE,RED BLUFF,Tehama,96080,530-225-6374,COMMONSPIRIT HEALTH,RODGER PAGE,Comparable,Non-Profit,General,01 - NORTHERN CALIFORNIA,DSH
106524017,RESTPADD RED BLUFF PSYCHIATRIC HEALTH FACILITY,925 WALNUT STREET,RED BLUFF,Tehama,96080,530-567-7300,O NWANGBURUKA,O NWANGBURUKA,PHF,Investor,Psychiatric,01 - NORTHERN CALIFORNIA,Non-DSH
106531059,TRINITY HOSPITAL,60 EASTER AVENUE,WEAVERVILLE,Trinity,96093,530-623-5541,TRINITY HOSPITAL,AARON ROGERS,Comparable,District,General,01 - NORTHERN CALIFORNIA,Non-DSH
106540734,KAWEAH DELTA MEDICAL CENTER,400 WEST MINERAL KING AVENUE,VISALIA,Tulare,93291-6237,559-624-2000,KAWEAH DELTA HEALTH CARE DISTRICT,GARY K. HERBST,Comparable,District,General,09 - CENTRAL,DSH
106540798,SIERRA VIEW MEDICAL CENTER,465 WEST PUTNAM AVENUE,PORTERVILLE,Tulare,93257,559-784-1110,SIERRA VIEW LOCAL HEALTHCARE DISTRICT,DONNA HEFNER,Comparable,District,General,09 - CENTRAL,DSH
106560203,AURORA VISTA DEL MAR HOSPITAL,801 SENECA STREET,VENTURA,Ventura,93001,805-653-6434,SIGNATURE HEALTHCARE SERVICES,COLTON REED,Comparable,Investor,Psychiatric,10 - SANTA BARBARA / VENTURA,Non-DSH
106560473,COMMUNITY MEMORIAL HOSPITAL OF SAN BUENAVENTURA,147 N. BRENT STREET,VENTURA,Ventura,93003-2809,805-652-5011,COMMUNITY MEMORIAL HEALTH SYSTEM,MICK ZDEBLICK,Comparable,Non-Profit,General,10 - SANTA BARBARA / VENTURA,DSH
106560481,VENTURA COUNTY MEDICAL CENTER,300 HILLMONT AVE,VENTURA,Ventura,93003,805-652-6058,COUNTY OF VENTURA,BARRY ZIMMERMAN,Comparable,City/County,General,10 - SANTA BARBARA / VENTURA,DSH
106560501,COMMUNITY MEMORIAL HOSPITAL - OJAI,1306 MARICOPA HIGHWAY,OJAI,Ventura,93023,805-640-2230,COMMUNITY MEMORIAL HEALTH SYSTEM,MICK ZDEBLICK,Comparable,Non-Profit,General,10 - SANTA BARBARA / VENTURA,DSH
106560525,ADVENTIST HEALTH SIMI VALLEY,2975 N SYCAMORE DRIVE,SIMI VALLEY,Ventura,93065,805-955-6000,ADVENTIST HEALTH SYSTEMS,JENNIFER SWENSON,Comparable,Non-Profit,General,10 - SANTA BARBARA / VENTURA,Non-DSH
106560529,ST. JOHN'S REGIONAL MEDICAL CENTER,1600 N. ROSE AVE,OXNARD,Ventura,93003,805-988-2500,COMMONSPIRIT HEALTH,BARRY WOLFMAN,Comparable,Non-Profit,General,10 - SANTA BARBARA / VENTURA,Non-DSH
106571086,WOODLAND MEMORIAL HOSPITAL,1325 COTTONWOOD STREET,WOODLAND,Yolo,95625,530-622-3961,DIGNITY HEALTH,GENA BRAVO,Comparable,Non-Profit,General,02 - GOLDEN EMPIRE,Non-DSH
106580996,ADVENTIST HEALTH AND RIDEOUT,726 4TH STREET,MARYSVILLE,Yuba,95901,530-749-4545,ADVENTIST HEALTH SYSTEMS,CHRIS CHAMPLIN,Comparable,Non-Profit,General,02 - GOLDEN EMPIRE,Non-DSH
106010735,ALAMEDA HOSPITAL,2070 CLINTON AVENUE,ALAMEDA,Alameda,94501,510-437-4800,ALAMEDA HEALTH SYSTEM,JAMES JACKSON,Comparable,City/County,General,05 - EAST BAY,DSH
106010776,UCSF BENIOFF CHILDREN'S HOSPITAL OAKLAND,747 52ND STREET,OAKLAND,Alameda,94609,510-428-3000,CHILDREN'S HOSPITAL & RESEARCH CENTER OAKLAND,JOAN ZOLTANSKI,Comparable,Non-Profit,Children,05 - EAST BAY,DSH
106014034,FREMONT HOSPITAL,39001 SUNDALE DRIVE,FREMONT,Alameda,94538,510-574-4825,"UHS OF DELAWARE, INC.",PATIRICIA WILLIAMS,Comparable,Investor,Psychiatric,05 - EAST BAY,Non-DSH
106034002,SUTTER AMADOR HOSPITAL,200 MISSION BLVD,JACKSON,Amador,95642,209-223-7500,SUTTER HEALTH,MICHAEL CURETON,Comparable,Non-Profit,General,06 - NORTH SAN JOAQUIN,DSH
106060870,COLUSA MEDICAL CENTER,199 E WEBSTER ST,COLUSA,Colusa,95932-3310,503-458-5821,"AMERICAN SPECIALTY HEALTHCARE, INC.",SHAMSHER SINGH,Comparable,Investor,General,01 - NORTHERN CALIFORNIA,Non-DSH
106074017,SAN RAMON REGIONAL MEDICAL CENTER,6001 NORRIS CANYON ROAD,SAN RAMON,Contra Costa,94583,925-275-9200,TENET HEALTHCARE CORPORATION,BEENU CHADHA,Comparable,Investor,General,05 - EAST BAY,Non-DSH
106090933,MARSHALL MEDICAL CENTER,1100 MARSHALL WAY,PLACERVILLE,El Dorado,95667,530-626-2783,MARSHALL MEDICAL CENTER,SIRI NELSON,Comparable,Non-Profit,General,02 - GOLDEN EMPIRE,Non-DSH
106100697,COALINGA MEDICAL CENTER,1191 PHELPS DRIVE,COALINGA,Fresno,93210-9609,559-349-0208,"COALINGA MEDICAL CENTER, LLC",AMARDEEP BRAR,Comparable,Investor,General,09 - CENTRAL,Non-DSH
106100797,ADVENTIST HEALTH REEDLEY,372 WEST CYPRESS AVENUE,REEDLEY,Fresno,93654,559-638-8155,ADVENTIST HEALTH SYSTEMS,JASON WELL,Comparable,Non-Profit,General,09 - CENTRAL,DSH
106100899,ST. AGNES MEDICAL CENTER,1303 EAST HERNDON AVENUE,FRESNO,Fresno,93720,559-450-3000,TRINITY HEALTH,ODETTE BOLANO,Comparable,Non-Profit,General,09 - CENTRAL,Non-DSH
106104023,SAN JOAQUIN VALLEY REHABILITATION HOSPITAL,7073 N SHARON AVENUE,FRESNO,Fresno,93720,916-323-7685,VIBRA HEALTHCARE LLC,MARY JACOBSON,Comparable,Investor,Specialty,09 - CENTRAL,Non-DSH
106104047,FRESNO SURGICAL HOSPITAL,6125 NORTH FRESNO STREET,FRESNO,Fresno,93710,559-431-8000,FSC HOSPITAL,JIM RODRIGUEZ,Comparable,Investor,Specialty,09 - CENTRAL,Non-DSH
106121080,PROVIDENCE ST. JOSEPH HOSPITAL - EUREKA,2700 DOLBEER ST,EUREKA,Humboldt,95501,707-445-8121,ST JOSEPH HEALTH NORTHERN CALIFORNIA LLC,"RANJIT HUNDAL, MD",Comparable,Non-Profit,General,01 - NORTHERN CALIFORNIA,Non-DSH
106130699,EL CENTRO REGIONAL MEDICAL CENTER,1415 ROSS AVENUE,EL CENTRO,Imperial,92243,619-339-7100,CITY OF EL CENTRO,PABLO VELEZ,Comparable,City/County,General,14 - SAN DIEGO / IMPERIAL,DSH
106141273,NORTHERN INYO HOSPITAL,150 PIONEER LANE,BISHOP,Inyo,93514,760-873-5811,NORTHERN INYO HEALTHCARE DISTRICT,STEPHEN DELROSSI,Comparable,District,General,12 - INLAND COUNTIES,Non-DSH
106150706,ADVENTIST HEALTH DELANO,1401 GARCES HIGHWAY,DELANO,Kern,93215,661-725-4800,ADVENTIST HEALTH SYSTEMS,JASON WELLS,Comparable,Non-Profit,General,09 - CENTRAL,DSH
106150788,ADVENTIST HEALTH BAKERSFIELD,2615 CHESTER AVENUE,BAKERSFIELD,Kern,93301,661-395-3000,ADVENTIST HEALTH SYSTEMS,TIM HAYDOCK,Comparable,Non-Profit,General,09 - CENTRAL,Non-DSH
106154022,ENCOMPASS HEALTH REHABILITATION HOSPITAL OF BAKERSFIELD,5001 COMMERCE DRIVE,BAKERSFIELD,Kern,93309,661-323-5500,ENCOMPASS HEALTH CORPORATION,MARTHA SAMORA,Comparable,Investor,Specialty,09 - CENTRAL,Non-DSH
106164029,ADVENTIST HEALTH HANFORD,115 MALL DRIVE,HANFORD,Kings,93232,559-582-9000,ADVENTIST HEALTH SYSTEMS,JASON WELL,Comparable,Non-Profit,General,09 - CENTRAL,DSH
106190017,ALHAMBRA HOSPITAL MEDICAL CENTER,100 SOUTH RAYMOND AVENUE,ALHAMBRA,Los Angeles,91802,626-570-1606,ALHAMBRA HOSPITAL MEDICAL CEMTER LP,IRIS LAI,Comparable,Investor,General,11 - LOS ANGELES COUNTY,DSH
106190049,KINDRED HOSPITAL - BALDWIN PARK,14148 FRANCISQUITO AVENUE,BALDWIN PARK,Los Angeles,91706,626-388-2700,KINDRED HEALTHCARE,KEVIN CHAVEZ,Comparable,Investor,General,11 - LOS ANGELES COUNTY,Non-DSH
106190081,BEVERLY HOSPITAL,309 WEST BEVERLY BOULEVARD,MONTEBELLO,Los Angeles,90640,323-726-1222,BEVERLY COMMUNITY HOSPITAL ASSOCIATION,HOWARD M. EHRENBERG,Comparable,Non-Profit,General,11 - LOS ANGELES COUNTY,DSH
106190137,CASA COLINA HOSPITAL AND CENTER FOR HEALTH CARE,255 E. BONITA AVE,POMONA,Los Angeles,91767,909-596-7733,"CASA COLINA, INC.",KELLY LINDEN,Comparable,Non-Profit,General,11 - LOS ANGELES COUNTY,Non-DSH
106190155,CALIFORNIA REHABILITATION INSTITUTE,2070 CENTURY PARK EAST,LOS ANGELES,Los Angeles,90067-1907,424-522-7100,SELECT MEDICAL CORPORATION,GEOFFREY HALL,Comparable,Investor,Specialty,11 - LOS ANGELES COUNTY,Non-DSH
106190163,AURORA CHARTER OAK,1161 EAST COVINA BOULEVARD,COVINA,Los Angeles,91724,626-966-1632,SIGNATURE HEALTH CARE,TODD A SMITH,Comparable,Investor,Psychiatric,11 - LOS ANGELES COUNTY,Non-DSH
106190197,COMMUNITY HOSPITAL OF HUNTINGTON PARK,2623 EAST SLAUSON AVENUE,HUNTINGTON PARK,Los Angeles,90255,323-583-1931,PIPELINE HEALTH,"MATT WHALEY, RN",Comparable,Investor,General,11 - LOS ANGELES COUNTY,DSH
106190200,SAN GABRIEL VALLEY MEDICAL CENTER,438 WEST LAS TUNAS DRIVE,SAN GABRIEL,Los Angeles,91776,626-289-5454,SAN GABRIEL VALLEY MEDICAL CENTER,PHILLIP COHEN,Comparable,Investor,General,11 - LOS ANGELES COUNTY,DSH
106190256,EAST LOS ANGELES DOCTOR'S HOSPITAL,4060 WHITTIER BOULEVARD,LOS ANGELES,Los Angeles,90023,323-268-5514,PIPELINE HEALTH,RICK RUFINO,Comparable,Investor,General,11 - LOS ANGELES COUNTY,DSH
106190298,EMANATE HEALTH FOOTHILL PRESBYTERIAN HOSPITAL,250 SO. GRAND AVE,GLENDORA,Los Angeles,91741,626-858-8589,EMANATE HEALTH,RAJESH SHARMA,Comparable,Non-Profit,General,11 - LOS ANGELES COUNTY,Non-DSH
106190305,KINDRED HOSPITAL - LOS ANGELES,5525 W. SLAUSON AVE,LOS ANGELES,Los Angeles,90056,310-642-0325,"KINDRED HEALTHCARE, INC",MARK APODACA,Comparable,Investor,General,11 - LOS ANGELES COUNTY,Non-DSH
106190352,GREATER EL MONTE COMMUNITY HOSPITAL,1701 SANTA ANITA AVENUE,SOUTH ELMONTE,Los Angeles,91733,626-579-7777,GREATER EL MONTE COMMUNITY HOSPITAL,STANLEY TOY,Comparable,Investor,General,11 - LOS ANGELES COUNTY,DSH
106190422,TORRANCE MEMORIAL MEDICAL CENTER,3330 LOMITA BOULEVARD,TORRANCE,Los Angeles,90505-5073,310-325-9110,"TORRANCE HEALTH ASSOCIATION, INC",CRAIG LEACH,Comparable,Non-Profit,General,11 - LOS ANGELES COUNTY,Non-DSH
106190449,KINDRED HOSPITAL - LA MIRADA,14900 EAST IMPERIAL HIGHWAY,LA MIRADA,Los Angeles,90638,562-944-1900,KINDRED HEALTHCARE INC.,PHILLIP WOLFE,Comparable,Investor,General,11 - LOS ANGELES COUNTY,Non-DSH
106190500,CEDARS-SINAI MARINA DEL REY HOSPITAL,4650 LINCOLN BLVD,MARINA DEL REY,Los Angeles,90292,310-823-8911,MARINA DEL REY HOSPITAL,BRYAN CROFT,Comparable,Non-Profit,General,11 - LOS ANGELES COUNTY,Non-DSH
106190547,MONTEREY PARK HOSPITAL,900 SOUTH ATLANTIC BLVD,MONTEREY PARK,Los Angeles,91754,626-570-9000,MONTEREY PARK HOSPITAL,PHILIP COHEN,Comparable,Investor,General,11 - LOS ANGELES COUNTY,DSH
106190631,PIH HEALTH WHITTIER HOSPITAL,12401 E. WASHINGTON BLVD,WHITTIER,Los Angeles,90602-1006,562-698-0811,PIH HEALTH HOSPITAL,JAMES R. WEST,Comparable,Non-Profit,General,11 - LOS ANGELES COUNTY,Non-DSH
106190673,SAN DIMAS COMMUNITY HOSPITAL,1350 WEST COVINA BLVD,SAN DIMAS,Los Angeles,91773,909-599-6811,"PRIME HEALTHCARE SERVICES, INC.",PARRISH SCARBORO,Comparable,Investor,General,11 - LOS ANGELES COUNTY,DSH
106190680,PROVIDENCE LITTLE COMPANY OF MARY MC - SAN PEDRO,1300 WEST SEVENTH STREET,SAN PEDRO,Los Angeles,90732,310-832-3311,PROVIDENCE ST JOSEPH HEALTH,MICHAEL RICKS,Comparable,Non-Profit,General,11 - LOS ANGELES COUNTY,DSH
106190766,COAST PLAZA HOSPITAL,13100 STUDEBAKER ROAD,NORWALK,Los Angeles,90650,562-868-3751,PIPELINE HEALTH,VICTOR CARRASCO,Comparable,Investor,General,11 - LOS ANGELES COUNTY,DSH
106190796,RONALD REAGAN UCLA MEDICAL CENTER,10833 LE CONTE AVE,LOS ANGELES,Los Angeles,90095,310-825-5041,REGENTS OF THE UNIVERSITY OF CALIFORNIA,TAMMY WALLACE,Comparable,Non-Profit,General,11 - LOS ANGELES COUNTY,DSH
106190883,WHITTIER HOSPITAL MEDICAL CENTER,9080 COLIMA ROAD,WHITTIER,Los Angeles,90605,562-945-3561,WHITTIER HOSPITAL MEDICAL CENTER,MARY ANNE MONJE,Comparable,Investor,General,11 - LOS ANGELES COUNTY,DSH
106190949,HENRY MAYO NEWHALL HOSPITAL,23845 MCBEAN PARKWAY,VALENCIA,Los Angeles,91355-2083,661-253-8000,HENRY MAYO NEWHALL MEMORIAL HOSPITAL,ROGER E. SEAVER,Comparable,Non-Profit,General,11 - LOS ANGELES COUNTY,Non-DSH
106191225,TOM REDGATE MEMORIAL RECOVERY CENTER,1775 CHESTNUT ST,LONG BEACH,Los Angeles,90813,310-599-8444,"BEHAVIORAL HEALTH SERVICES, INC.",SHIRLEY SUMMERS,Comparable,Non-Profit,Specialty,11 - LOS ANGELES COUNTY,Non-DSH
106191227,LAC/HARBOR - UCLA MEDICAL CENTER,1000 W. CARSON STREET,TORRANCE,Los Angeles,90509-2910,424-306-7501,COUNTY OF LOS ANGELES,"ANISH MAHAJAN, MD, MS, MPH",Comparable,City/County,General,11 - LOS ANGELES COUNTY,DSH
106191231,LAC/OLIVE VIEW - UCLA MEDICAL CENTER,14445 OLIVE VIEW DRIVE,SYLMAR,Los Angeles,91342-1495,747-210-3000,COUNTY OF LOS ANGELES,KONITA WILKS,Comparable,City/County,General,11 - LOS ANGELES COUNTY,DSH
106194010,AMERICAN RECOVERY CENTER,2180 WEST VALLEY BLVD,POMONA,Los Angeles,91768,909-865-2336,"BEHAVIORAL HEALTH SERVICES, INC.",SHIRLEY SUMMERS,Comparable,Non-Profit,Specialty,11 - LOS ANGELES COUNTY,Non-DSH
106204019,VALLEY CHILDREN'S HOSPITAL,9300 VALLEY CHILDRENS PLACE,MADERA,Madera,93636-8761,559-353-3000,VALLEY CHILDRENS HEALTHCARE,TODD SUNTRAPAK,Comparable,Non-Profit,Children,09 - CENTRAL,DSH
106220733,JOHN C. FREMONT HEALTHCARE DISTRICT,5189 HOSPITAL ROAD,MARIPOSA,Mariposa,95338,209-966-3631,JOHN C. FREMONT DISTRICT,MICHAEL ZIMMERMAN,Comparable,District,General,09 - CENTRAL,Non-DSH
106234038,ADVENTIST HEALTH HOWARD MEMORIAL,1 MARCELA DRIVE,WILLITS,Mendocino,95490,707-459-6801,ADVENTIST HEALTH SYSTEMS,KERRY HEINRICH,Comparable,Non-Profit,General,01 - NORTHERN CALIFORNIA,DSH
106240924,MEMORIAL HOSPITAL LOS BANOS,520 WEST I STREET,LOS BANOS,Merced,93635,209-826-0591,SUTTER CENTRAL VALLEY HOSPITALS,SCOTT KNIGHT,Comparable,Non-Profit,General,06 - NORTH SAN JOAQUIN,DSH
106244027,MARIE GREEN PSYCHIATRIC CENTER - PHF,300 EAST 15TH STREET,MERCED,Merced,95341,209-381-6879,COUNTY OF MERCED,"KIMIKO VANG, DSW, LCSW",PHF,City/County,Psychiatric,06 - NORTH SAN JOAQUIN,Non-DSH
106250955,SURPRISE VALLEY COMMUNITY HOSPITAL,741 MAIN STREET,CEDARVILLE,Modoc,96104,530-279-6111,SURPRISE VALLEY HEALTH CARE DISTRICT,FRANCES HANNAH,Comparable,District,General,01 - NORTHERN CALIFORNIA,Non-DSH
106281047,PROVIDENCE QUEEN OF THE VALLEY MEDICAL CENTER,1000 TRANCAS STREET,NAPA,Napa,94558,707-252-4411,"ST JOSEPH HEALTH NORTHERN CALIFORNIA, LLC",TERRY WOOTEN,Comparable,Non-Profit,General,03 - NORTH BAY,Non-DSH
106281078,ADVENTIST HEALTH ST. HELENA,10 WOODLAND ROAD,ST. HELENA,Napa,94574,707-963-3611,ST. HELENA,"STEVEN HERBER, M.D.",Comparable,Non-Profit,General,03 - NORTH BAY,DSH
106301175,FOUNTAIN VALLEY REGIONAL HOSPITAL AND MC - EUCLID,17100 EUCLID ST,FOUNTAIN VALLEY,Orange,92708,714-966-7200,TENET HEALTHCARE CORP.,RANDY ROGERS,Comparable,Investor,General,13 - ORANGE COUNTY,DSH
106301297,PLACENTIA LINDA HOSPITAL,1301 N ROSE DRIVE,PLACENTIA,Orange,92870,714-993-2000,TENET HEALTHCARE CORP,FRED VALTAIRO,Comparable,Investor,General,13 - ORANGE COUNTY,Non-DSH
106301340,PROVIDENCE ST. JOSEPH HOSPITAL,1100 WEST STEWART DRIVE,ORANGE,Orange,92863-5600,714-771-8000,ST. JOSEPH HEALTH,JEREMY ZOCH,Comparable,Non-Profit,General,13 - ORANGE COUNTY,Non-DSH
106301342,PROVIDENCE ST. JUDE MEDICAL CENTER,101 E. VALENCIA MESA DR,FULLERTON,Orange,92835,714-992-3000,ST. JOSEPH HEALTH SYSTEM,LAURA RAMOS,Comparable,Non-Profit,General,13 - ORANGE COUNTY,Non-DSH
106304159,HEALTHBRIDGE CHILDREN'S HOSPITAL - ORANGE,393 SOUTH TUSTIN STREET,ORANGE,Orange,92866,714-289-2400,"VSC HBO, LLC",ROBERTA CONSOLVER,Comparable,Investor,General,13 - ORANGE COUNTY,DSH
106304589,ALISO RIDGE BEHAVIORAL HEALTH,200 FREEDOM LANE,ALISO VIEJO,Orange,92656,877-978-4848,SIGNATURE HEALTH CARE,PHILLIP FRANKS,Comparable,Investor,Psychiatric,13 - ORANGE COUNTY,Non-DSH
106320859,EASTERN PLUMAS HEALTH CARE,500 FIRST AVE,PORTOLA,Plumas,96122,530-832-6500,EASTERN PLUMAS HEALTHCARE,DOUGLAS MCCOY,Comparable,District,General,01 - NORTHERN CALIFORNIA,DSH
106331164,DESERT REGIONAL MEDICAL CENTER,1150 N INDIAN CANYON DRIVE,PALM SPRINGS,Riverside,92263,760-323-6523,TENET HEALTHCARE CORP,MICHELE FINNEY,Comparable,Investor,General,12 - INLAND COUNTIES,Non-DSH
106331226,PACIFIC GROVE HOSPITAL,5900 BROCKTON AVE,RIVERSIDE,Riverside,92506,909-275-8400,VISTA BEHAVIORAL HEALTH,STEVE HYTRY,Comparable,Investor,Psychiatric,12 - INLAND COUNTIES,Non-DSH
106331293,DOCTORS HOSPITAL OF RIVERSIDE,3865 JACKSON STREET,RIVERSIDE,Riverside,92503,951-688-2211,DOCTORS HOSPITAL OF RIVERSIDE,DAVID BATISTA,Comparable,Non-Profit,General,12 - INLAND COUNTIES,DSH
106331312,RIVERSIDE COMMUNITY HOSPITAL,4445 MAGNOLIA AVE,RIVERSIDE,Riverside,92501,951-788-3000,HCA CORP,PETER HEMSTED,Comparable,Investor,General,12 - INLAND COUNTIES,Non-DSH
106332172,KINDRED HOSPITAL - RIVERSIDE,2224 MEDICAL CENTER DRIVE,PERRIS,Riverside,92571,951-436-3535,KINDRED HEALTHCARE,TAMRA HENNIS,Comparable,Investor,General,12 - INLAND COUNTIES,Non-DSH
106341006,UNIVERSITY OF CALIFORNIA DAVIS MEDICAL CENTER,2315 STOCKTON BOULEVARD,SACRAMENTO,Sacramento,95817,916-734-9136,UC DAVIS MEDICAL CENTER,BRAD SIMMONS,Comparable,Non-Profit,General,02 - GOLDEN EMPIRE,DSH
106342392,SIERRA VISTA HOSPITAL,8001 BRUCEVILLE ROAD,SACRMENTO,Sacramento,96823,916-288-0300,"UHS OF DELAWARE, INC.",TAMI BROOKS,Comparable,Investor,Psychiatric,02 - GOLDEN EMPIRE,DSH
106344021,HERITAGE OAKS HOSPITAL,4250 AUBURN BLVD,SACRAMENTO,Sacramento,95841,916-489-3336,"UNIVERSAL HEALTH SERVICES, INC.",YANNIS ANGOURAS,Comparable,Investor,Psychiatric,02 - GOLDEN EMPIRE,Non-DSH
106361274,KINDRED HOSPITAL - ONTARIO,550 NORTH MONTEREY AVE,ONTARIO,San Bernardino,91764,909-391-0333,"KINDRED HEALTHCARE, INC.",TERRI COUTURE,Comparable,Investor,General,12 - INLAND COUNTIES,Non-DSH
106361768,PATTON STATE HOSPITAL,3102 EAST HIGHLAND AVE,PATTON,San Bernardino,92369,909-672-1445,STATE OF CALIFORNIA,JANINE WALLACE,State,State,Specialty,12 - INLAND COUNTIES,Non-DSH
106364502,LOMA LINDA UNIVERSITY CHILDREN'S HOSPITAL,11234 ANDERSON ST,LOMA LINDA,San Bernardino,92354,909-558-4000,LOMA LINDA UNIVERSITY HEALTH,TREVOR WRIGHT,Comparable,Non-Profit,General,12 - INLAND COUNTIES,DSH
106370652,ALVARADO HOSPITAL MEDICAL CENTER,6655 ALVARADO ROAD,SAN DIEGO,San Diego,92120,619-287-3270,"PRIME HEALTHCARE SERVICES, INC.",STEVE ALEMAN,Comparable,Investor,General,14 - SAN DIEGO / IMPERIAL,Non-DSH
106370689,SHARP CORONADO HOSPITAL AND HEALTHCARE CENTER,250 PROSPECT PLACE,CORONADO,San Diego,92118,619-522-3600,SHARP HEALTHCARE CORPORATION,SUSAN STONE,Comparable,Non-Profit,General,14 - SAN DIEGO / IMPERIAL,Non-DSH
106370694,SHARP MEMORIAL HOSPITAL,7901 FROST STREET,SAN DIEGO,San Diego,92123-1489,858-939-3400,SHARP HEALTHCARE,TRISHA KHALEGHI,Comparable,Non-Profit,General,14 - SAN DIEGO / IMPERIAL,Non-DSH
106370714,SHARP GROSSMONT HOSPITAL,5555 GROSSMONT CENTER DRIVE,LA MESA,San Diego,91942,619-740-6000,SHARP HEALTHCARE,WILLIAM S. EVANS,Comparable,Non-Profit,General,14 - SAN DIEGO / IMPERIAL,DSH
106370744,SCRIPPS MERCY HOSPITAL,4077 FIFTH AVENUE,SAN DIEGO,San Diego,92103,619-294-8111,SCRIPPS HEALTH,TOM GAMMIERE,Comparable,Non-Profit,General,14 - SAN DIEGO / IMPERIAL,DSH
106370875,SHARP CHULA VISTA MEDICAL CENTER,751 MEDICAL CENTER COURT,CHULA VISTA,San Diego,91911-6617,619-502-3664,SHARP HEALTHCARE CORPORATION,WILLIAM SCOTT EVANS,Comparable,Non-Profit,General,14 - SAN DIEGO / IMPERIAL,DSH
106374382,PALOMAR MEDICAL CENTER,2185 CITRACADO PKWY,ESCONDIDO,San Diego,92029,760-739-3000,PALOMAR HEALTH,DIANE L. HANSEN,Comparable,District,General,14 - SAN DIEGO / IMPERIAL,Non-DSH
106390846,DAMERON HOSPITAL ASSOCIATION,525 WEST ACACIA STREET,STOCKTON,San Joaquin,95203,209-944-5550,DAMERON HOSPITAL ASSOCIATION,TERRI DAY,Comparable,Non-Profit,General,06 - NORTH SAN JOAQUIN,Non-DSH
106391042,ST. JOSEPH'S MEDICAL CENTER OF STOCKTON,1800 NORTH CALIFORNIA STREET,STOCKTON,San Joaquin,95204-6088,209-943-2000,"PORT CITY OPERATING COMPANY, LLC",DON WILEY,Comparable,Non-Profit,General,06 - NORTH SAN JOAQUIN,Non-DSH
106392287,DOCTORS HOSPITAL OF MANTECA,1205 EAST NORTH STREET,MANTECA,San Joaquin,95336,209-823-3111,"TENET HEALTH SYSTEM MEDICAL, INC.",JAY KRISHNASWAMY,Comparable,Investor,General,06 - NORTH SAN JOAQUIN,Non-DSH
106400548,TENET HEALTH CENTRAL COAST TWIN CITIES COMMUNITY HOSPITAL,1100 LAS TABLAS ROAD,TEMPLETON,San Luis Obispo,93465,805-434-3500,TENET HEALTHCARE CORP,MARK LISA,Comparable,Investor,General,08 - MID-COAST,Non-DSH
106404046,SAN LUIS OBISPO COUNTY - PHF,2178 JOHNSON AVENUE,SAN LUIS OBISPO,San Luis Obispo,93401,805-903-1905/ 805-781-4700,"COUNTY OF SAN LUIS OBISPO/ CRESTWOOD BEHAVIORAL HEALTH, INC.","Star Graber Ph.D., LMFT (Behavioral Health Director)/ George C. Lytal (CEO)",PHF,City/County,Psychiatric,08 - MID-COAST,DSH
106424002,SANTA BARBARA PSYCHIATRIC HEALTH FACILITY,"315 CAMINO DEL REMEDIO, BLDG. 3",SANTA BARBARA,Santa Barbara,93110,805-681-5244,COUNTY OF SANTA BARBARA,ANTONETTE NAVARRO,PHF,City/County,Psychiatric,10 - SANTA BARBARA / VENTURA,Non-DSH
106430705,REGIONAL MEDICAL CENTER OF SAN JOSE,225 NORTH JACKSON AVE,SAN JOSE,Santa Clara,95116,408-259-5000,HCA,MATTHEW COVA,Comparable,Investor,General,07 - SANTA CLARA,Non-DSH
106430779,GOOD SAMARITAN HOSPITAL - SAN JOSE,2425 SAMARITAN DRIVE,SAN JOSE,Santa Clara,95124,408-559-2011,HCA - THE HEALTHCARE COMPANY,PATRICK ROHAN,Comparable,Investor,General,07 - SANTA CLARA,Non-DSH
106434220,CRESTWOOD PSYCHIATRIC HEALTH FACILITY - SAN JOSE,"1425 FRUITDALE AVE, SUITE A",SAN JOSE,Santa Clara,95128,408-275-1010,"CRESTWOOD BEHAVIORAL HEALTH, INC.",GAIL MCDONALD,PHF,Investor,Psychiatric,07 - SANTA CLARA,Non-DSH
106444013,WATSONVILLE COMMUNITY HOSPITAL,75 NIELSON STREET,WATSONVILLE,Santa Cruz,95076,831-724-4741,PAJARO VALLEY HEALTHCARE DISTRICT HOSPITAL CORP.,STEPHEN GRAY,Comparable,Non-Profit,General,08 - MID-COAST,DSH
106450936,MAYERS MEMORIAL HOSPITAL,HIGHWAY 299 EAST 43563,FALL RIVER MILLS,Shasta,96028,530-336-5511,MAYERS MEMORIAL HOSPITAL DISCTRICT,RYAN HARRIS,Comparable,District,General,01 - NORTHERN CALIFORNIA,DSH
106454012,VIBRA HOSPITAL OF NORTHERN CALIFORNIA,2801 EUREKA,REDDING,Shasta,96001,503-246-9000,"VIBRA HEALTHCARE, LLC",EMILY DEFILLIPO,Comparable,Investor,Specialty,01 - NORTHERN CALIFORNIA,Non-DSH
106454013,PATIENTS' HOSPITAL OF REDDING,2900 EUREKA WAY,REDDING,Shasta,96001,530-225-8700,DR. JAMES D. TATE,SHARI LEJSEK,Comparable,Investor,Specialty,01 - NORTHERN CALIFORNIA,Non-DSH
106481357,NORTHBAY MEDICAL CENTER,1200 B. GALE WILSON BOULEVARD,FAIRFIELD,Solano,94533,707-646-3179,NORTHBAY HEALTHCARE CORPORATION,MARK BEHL,Comparable,Non-Profit,General,03 - NORTH BAY,DSH
106484062,CRESTWOOD SOLANO PSYCHIATRIC HEALTH FACILITY,2201 TUOLUMNE ST,VALLEJO,Solano,94589,707-234-2222,"CRESTWOOD BEHAVIORAL HEALTH, INC.",NICOLE PAISTE,PHF,Investor,Psychiatric,03 - NORTH BAY,Non-DSH
106490964,HEALDSBURG HOSPITAL,1375 UNIVERSITY AVENUE,HEALDSBURG,Sonoma,95448,707-431-6500,NORCAL HEALTHCONNECT,TROY GIDEON,Comparable,Non-Profit,General,03 - NORTH BAY,Non-DSH
106491001,PETALUMA VALLEY HOSPITAL,400 NORTH MCDOWELL BLVD,PETALUMA,Sonoma,94952,707-778-1111,SANTA ROSA MEMORIAL HOSPITAL,TROY GIDEON,Comparable,Non-Profit,General,03 - NORTH BAY,Non-DSH
106491064,PROVIDENCE SANTA ROSA MEMORIAL HOSPITAL,1165 MONTGOMERY DRIVE,SANTA ROSA,Sonoma,95405,707-525-5300,ST JOSEPH HEALTH NORTHERN CALIFORNIA LLC,GARRY OLNEY,Comparable,Non-Profit,General,03 - NORTH BAY,Non-DSH
106491338,SONOMA SPECIALTY HOSPITAL,501 PETALUMA,SEBASTOPOL,Sonoma,95472,707-823-8511,"AMERICAN ADVANCED MANAGEMENT, INC.",TAMMY THOMPSON,Comparable,Investor,Specialty,03 - NORTH BAY,Non-DSH
106500954,CENTRAL VALLEY SPECIALTY HOSPITAL,730 17TH STREET,MODESTO,Stanislaus,95354-1209,209-576-2532,GURPREET SINGH RANDHAWA,TAMMY THOMPSON,Comparable,Investor,General,06 - NORTH SAN JOAQUIN,Non-DSH
106500967,OAK VALLEY HOSPITAL DISTRICT,350 SOUTH OAK AVENUE,OAKDALE,Stanislaus,95361,209-847-3011,OAK VALLEY DISTRICT HOSPITAL,MATTHEW HEYN,Comparable,District,General,06 - NORTH SAN JOAQUIN,Non-DSH
106514005,STABLER LANE BEHAVIORAL HEALTH - PHF,1253 STABLER LANE,YUBA CITY,Sutter,95993,530-790-2520,"NORTH VALLEY BEHAVIORAL HEALTH, LLC",ARNE HYSON,PHF,Investor,Psychiatric,02 - GOLDEN EMPIRE,Non-DSH
106540816,ADVENTIST HEALTH TULARE,869 N. CHERRY STREET,TULARE,Tulare,93724,559-688-0821,ADVENTIST HEALTH SYSTEMS,JASON WELL,Comparable,Non-Profit,General,09 - CENTRAL,DSH
106541123,PORTERVILLE STATE HOSPITAL,26501 AVE 140,PORTERVILLE,Tulare,93257,559-782-2222,STATE OF CALIFORNIA,GABRIELA MALESEEWSKI,State,State,Specialty,09 - CENTRAL,Non-DSH
106554011,ADVENTIST HEALTH SONORA - GREENLEY,1000 GREENLEY ROAD,SONORA,Tuolumne,95370,209-536-5000,ADVENTIST HEALTH SYSTEMS,MICHELLE FUENTES,Comparable,Non-Profit,General,06 - NORTH SAN JOAQUIN,Non-DSH
106560492,LOS ROBLES HOSPITAL AND MEDICAL CENTER,215 W JANSS ROAD,THOUSAND OAKS,Ventura,91360,805-494-2727,HCA - THE HEALTHCARE COMPANY,PHIL BUTTELL,Comparable,Investor,General,10 - SANTA BARBARA / VENTURA,Non-DSH
106574010,SUTTER DAVIS HOSPITAL,2000 SUTTER PLACE,DAVIS,Yolo,95616,530-756-6440,SUTTER HEALTH,RACHEL MCKINNEY,Comparable,Non-Profit,General,02 - GOLDEN EMPIRE,Non-DSH
